{
"type": "FeatureCollection",
"name": "ghat_crest",
"crs": { "type": "name", "properties": { "name": "urn:ogc:def:crs:OGC:1.3:CRS84" } },
"features": [
{ "type": "Feature", "properties": { "name": "western_ghats_crest" }, "geometry": { "type": "LineString", "coordinates": [ [ 73.916546499759164, 16.981526086698228 ], [ 73.91652072276203, 16.990490159554035 ], [ 73.883898717803021, 16.999454224385374 ], [ 73.851276712843998, 17.008368928450924 ], [ 73.851249352585199, 17.01733294967471 ], [ 73.851221992326415, 17.025939171437965 ], [ 73.851194615485326, 17.034902977058302 ], [ 73.851167238644251, 17.0438667746146 ], [ 73.851112451790158, 17.052830564103115 ], [ 73.851057631756731, 17.061794345520092 ], [ 73.851002778536582, 17.070758118861779 ], [ 73.851002778536582, 17.079668889151481 ], [ 73.851002778536582, 17.088579164486468 ], [ 73.851002778536582, 17.097542854395698 ], [ 73.851002778536582, 17.106452596010055 ], [ 73.851002778536582, 17.115196072915705 ], [ 73.851002778536582, 17.124159586361991 ], [ 73.850231344703445, 17.133123091687217 ], [ 73.850175992793154, 17.142878167307224 ], [ 73.850175992793154, 17.151792301350245 ], [ 73.850175992793154, 17.160705942238092 ], [ 73.850175992793154, 17.169619089251619 ], [ 73.850175992793154, 17.178480143684379 ], [ 73.850175992793154, 17.187339353988236 ], [ 73.850175992793154, 17.196250095640334 ], [ 73.850175992793154, 17.205213747402901 ], [ 73.831475759154117, 17.214070085137436 ], [ 73.822096619880583, 17.222979331543435 ], [ 73.81271658224135, 17.231888078094961 ], [ 73.803335645711584, 17.240796324072324 ], [ 73.802872531895588, 17.249704068755808 ], [ 73.80281448638317, 17.2586113114256 ], [ 73.793953809766521, 17.267403467196118 ], [ 73.784571073881352, 17.276366747771764 ], [ 73.77495032942582, 17.285330020153765 ], [ 73.756537747283261, 17.294293284338359 ], [ 73.75647762234486, 17.30337137694767 ], [ 73.75647762234486, 17.312503783714988 ], [ 73.75647762234486, 17.321467179336278 ], [ 73.75647762234486, 17.32985109389239 ], [ 73.75647762234486, 17.338814154993059 ], [ 73.77495032942582, 17.347777207858655 ], [ 73.80281448638317, 17.356679817273207 ], [ 73.802872531895588, 17.365642820524808 ], [ 73.830057667858171, 17.375467612000037 ], [ 73.830057667858171, 17.384431070787553 ], [ 73.839561308764814, 17.393394521362424 ], [ 73.83961788333653, 17.402357963720934 ], [ 73.83961788333653, 17.411321397859339 ], [ 73.83961788333653, 17.420856085742908 ], [ 73.83961788333653, 17.429819815626047 ], [ 73.839674424165878, 17.438157037768235 ], [ 73.839674424165878, 17.447120409169898 ], [ 73.839674424165878, 17.456610802866408 ], [ 73.848161084100695, 17.465574445284563 ], [ 73.848161084100695, 17.474010473910884 ], [ 73.848161084100695, 17.482973812324147 ], [ 73.848104494865893, 17.491937142481 ], [ 73.838708635885638, 17.501063613511203 ], [ 73.838708635885638, 17.510027015944079 ], [ 73.838708635885638, 17.518990410117794 ], [ 73.838651520391238, 17.527899763791979 ], [ 73.838594371023603, 17.536863112066793 ], [ 73.838594371023603, 17.54577192099374 ], [ 73.838594371023603, 17.554735223104682 ], [ 73.838594371023603, 17.56369851693233 ], [ 73.829196607414815, 17.572606741741247 ], [ 73.829138930387714, 17.581569989129651 ], [ 73.829081219191721, 17.590533228220796 ], [ 73.829023473819021, 17.59949645901095 ], [ 73.828965694261754, 17.608459681496409 ], [ 73.828907880512133, 17.617422895673474 ], [ 73.828850032562272, 17.626386101538422 ], [ 73.82879215040434, 17.635349299087554 ], [ 73.8193900011143, 17.644256745901529 ], [ 73.819331588453736, 17.653219896684423 ], [ 73.818980387617046, 17.662126793288337 ], [ 73.809928018455182, 17.671089897039405 ], [ 73.809869074176717, 17.680052992450346 ], [ 73.809810095104822, 17.689016079517462 ], [ 73.809751081231468, 17.697979158237032 ], [ 73.809692032548654, 17.706998626326055 ], [ 73.809573830722599, 17.715905290618732 ], [ 73.8095146775633, 17.72486834427346 ], [ 73.809455489562424, 17.733831389565829 ], [ 73.800047005462915, 17.742737461891171 ], [ 73.799987282702517, 17.751700459813573 ], [ 73.799927524802811, 17.760663449359573 ], [ 73.799927524802811, 17.769568927971367 ], [ 73.799927524802811, 17.77847389016031 ], [ 73.799927524802811, 17.78743679254438 ], [ 73.799927524802811, 17.796341197821874 ], [ 73.790517109652939, 17.805304052037268 ], [ 73.781105763022936, 17.814207899174001 ], [ 73.781044967387075, 17.82317070495418 ], [ 73.771632186629958, 17.832537533771678 ], [ 73.771570852876778, 17.841444133236237 ], [ 73.762156636083589, 17.850407099908246 ], [ 73.762094763092435, 17.859313143539769 ], [ 73.677519320475582, 17.867368049006643 ], [ 73.677452971424202, 17.876394183265401 ], [ 73.677386583542727, 17.885356634512142 ], [ 73.677320156822091, 17.894319077286308 ], [ 73.67725369125327, 17.903281511584197 ], [ 73.677187186827211, 17.912243937402078 ], [ 73.677120643534863, 17.921206354736253 ], [ 73.676653751470297, 17.930168763582991 ], [ 73.676653751470297, 17.939067217046176 ], [ 73.676586896920867, 17.948029574848405 ], [ 73.676520003423377, 17.95692745816886 ], [ 73.676386099547699, 17.965889764658531 ], [ 73.676386099547699, 17.974852062635573 ], [ 73.676386099547699, 17.983814352096267 ], [ 73.676386099547699, 17.992905387550394 ], [ 73.676386099547699, 18.001867728364097 ], [ 73.676520003423377, 18.010830060656993 ], [ 73.676586896920867, 18.019728130886971 ], [ 73.676653751470297, 18.028754699665487 ], [ 73.71364606149568, 18.038908271655483 ], [ 73.713711252708663, 18.046932193958376 ], [ 73.713711252708663, 18.055894617583089 ], [ 73.713711252708663, 18.06491918732776 ], [ 73.713711252708663, 18.073943360209178 ], [ 73.722362194569712, 18.083832279505014 ], [ 73.722362194569712, 18.092795224600707 ], [ 73.722362194569712, 18.101812258876485 ], [ 73.722362194569712, 18.110775215577586 ], [ 73.722946679850054, 18.118312753505592 ], [ 73.731538289391651, 18.127339603384797 ], [ 73.73224824763227, 18.136429842547184 ], [ 73.740845640520632, 18.14558083497457 ], [ 73.731538289391651, 18.154543197499802 ], [ 73.722362194569712, 18.163505551457764 ], [ 73.72229706331396, 18.172529989771562 ], [ 73.722231894336261, 18.181554027884609 ], [ 73.722231894336261, 18.190698780775058 ], [ 73.722231894336261, 18.200183919775597 ], [ 73.722231894336261, 18.209090394531646 ], [ 73.684277134733776, 18.216961343133104 ], [ 73.684142315070176, 18.225988050048834 ], [ 73.674970682259968, 18.234885587886215 ], [ 73.674902831669513, 18.243912345424736 ], [ 73.674834981079059, 18.252479504658687 ], [ 73.651328039375926, 18.261441423581491 ], [ 73.627821097672793, 18.270403333859139 ], [ 73.627785902273871, 18.279365235487958 ], [ 73.627750706874934, 18.287773639115642 ], [ 73.627715491175564, 18.296735233547633 ] ] } }
]
}
