{
"type": "FeatureCollection",
"name": "ghat_crest",
"crs": { "type": "name", "properties": { "name": "urn:ogc:def:crs:OGC:1.3:CRS84" } },
"features": [
{ "type": "Feature", "properties": { "name": "western_ghats_crest" }, "geometry": { "type": "LineString", "coordinates": [ [ 73.790379834242287, 17.800273721948059 ], [ 73.767121062843145, 17.809221490806443 ], [ 73.767090327874541, 17.818169251282399 ], [ 73.767059592905952, 17.827463964964203 ], [ 73.767028839925558, 17.836411894165266 ], [ 73.766998086945179, 17.845359814990719 ], [ 73.72457892328498, 17.854250933870535 ], [ 73.682159759624795, 17.862292369433707 ], [ 73.68209373932207, 17.871239751010396 ], [ 73.68202768045235, 17.880250775615941 ], [ 73.681961583006668, 17.889198174250474 ], [ 73.681895446976071, 17.898145564440952 ], [ 73.672914282549613, 17.907092946183695 ], [ 73.672847870407281, 17.916040319474988 ], [ 73.672448581950931, 17.92492386310246 ], [ 73.672448581950931, 17.933871185521944 ], [ 73.672381897856894, 17.942754157599449 ], [ 73.671847024432921, 17.951701428878522 ], [ 73.671779990034779, 17.960648691681069 ], [ 73.671779990034779, 17.969531048039752 ], [ 73.671779990034779, 17.978478259422396 ], [ 73.671779990034779, 17.987490429192643 ], [ 73.671779990034779, 17.996566298172311 ], [ 73.671779990034779, 18.005449459798228 ], [ 73.671847024432921, 18.014396705892434 ], [ 73.681298484896587, 18.02334394348761 ], [ 73.708995595373239, 18.033544384768788 ], [ 73.718448387703745, 18.042492268705892 ], [ 73.718448387703745, 18.050502533289905 ], [ 73.718448387703745, 18.059387397138632 ], [ 73.718448387703745, 18.068459351342092 ], [ 73.718448387703745, 18.078338533495732 ], [ 73.727125641334638, 18.087286404121176 ], [ 73.727707088366074, 18.096288680711218 ], [ 73.727707088366074, 18.105236563127697 ], [ 73.727707088366074, 18.112750858839028 ], [ 73.736325361206212, 18.121697968433079 ], [ 73.736389750127685, 18.130710130363248 ], [ 73.736454101858797, 18.139975862031189 ], [ 73.736389750127685, 18.148985527602253 ], [ 73.736325361206212, 18.157994791724644 ], [ 73.727125641334638, 18.166942126076844 ], [ 73.717798136404838, 18.175889451890338 ], [ 73.717798136404838, 18.184898361477536 ], [ 73.717798136404838, 18.193967573237622 ], [ 73.717798136404838, 18.203440913963341 ], [ 73.679691252762851, 18.21129887268712 ], [ 73.679623799464252, 18.220245956436088 ], [ 73.679556307262899, 18.229193031604762 ], [ 73.679488776149569, 18.238140098189472 ], [ 73.679488776149569, 18.247087156186556 ], [ 73.679488776149569, 18.255704194535202 ], [ 73.679488776149569, 18.264651062526102 ], [ 73.679488776149569, 18.273530465620663 ], [ 73.679488776149569, 18.281920721997395 ], [ 73.679488776149569, 18.290867237745363 ], [ 73.679488776149569, 18.299813744834285 ], [ 73.753901707770339, 18.311356421977543 ], [ 73.753965837720344, 18.319169193967689 ], [ 73.754029930867347, 18.328116438648205 ], [ 73.754093987220131, 18.337063674730672 ], [ 73.754093987220131, 18.34601090221145 ], [ 73.754093987220131, 18.355019401056207 ], [ 73.754093987220131, 18.364830617578267 ], [ 73.754093987220131, 18.373778301337065 ], [ 73.754029930867347, 18.382671571284863 ], [ 73.753965837720344, 18.391673643146241 ], [ 73.753901707770339, 18.400511912165886 ], [ 73.537104896459354, 18.407098980138539 ], [ 73.537029299431069, 18.41604533679941 ], [ 73.537029299431069, 18.424991684745866 ], [ 73.537029299431069, 18.433792055102149 ], [ 73.537029299431069, 18.442590400671378 ], [ 73.536953659126254, 18.451536569874744 ], [ 73.536574808092297, 18.460704124475662 ], [ 73.536498907911067, 18.469723293632917 ], [ 73.527241859617973, 18.478669589215524 ], [ 73.518063329275549, 18.487688386928475 ], [ 73.507649204733681, 18.496634702585446 ], [ 73.499171187003682, 18.505581009498638 ], [ 73.499093469882098, 18.513933213710825 ], [ 73.498157395784645, 18.522413728178091 ], [ 73.498157395784645, 18.531280203165331 ], [ 73.498157395784645, 18.54022588598308 ], [ 73.498157395784645, 18.550018503135657 ], [ 73.498157395784645, 18.558889917196762 ], [ 73.498157395784645, 18.567835972435255 ], [ 73.498157395784645, 18.576706783513387 ], [ 73.498157395784645, 18.585652782356014 ], [ 73.498157395784645, 18.595330741484972 ], [ 73.498157395784645, 18.604205982614214 ], [ 73.498157395784645, 18.613008575390324 ], [ 73.498079100233127, 18.621954805669144 ], [ 73.488585776049135, 18.630901027156586 ], [ 73.488506900463676, 18.639847239848969 ], [ 73.487397925987139, 18.647732500101867 ], [ 73.487397925987139, 18.656598790047738 ], [ 73.487397925987139, 18.665544390054464 ], [ 73.487397925987139, 18.674489981192149 ], [ 73.487397925987139, 18.683435563457117 ], [ 73.487397925987139, 18.692381136845665 ], [ 73.487397925987139, 18.701873712700447 ], [ 73.486840131496905, 18.710895840101848 ], [ 73.486840131496905, 18.719917563263625 ], [ 73.486840131496905, 18.72886345967785 ], [ 73.486840131496905, 18.738034306143064 ], [ 73.487397925987139, 18.746980300015348 ], [ 73.496662148518197, 18.756147202835752 ], [ 73.49674124796563, 18.766950115782578 ], [ 73.524777160870912, 18.773516718758042 ], [ 73.524854862031177, 18.782308839319235 ], [ 73.524854862031177, 18.790941325502292 ], [ 73.524854862031177, 18.799886873532419 ], [ 73.524777160870912, 18.810867307754052 ], [ 73.486840131496905, 18.819747595703404 ], [ 73.486039447916667, 18.827642204069303 ], [ 73.486039447916667, 18.836588184885599 ], [ 73.486039447916667, 18.845460140651674 ], [ 73.533349556989847, 18.853796453343016 ], [ 73.542856799646344, 18.862974361664264 ], [ 73.542933943176024, 18.871920076969808 ], [ 73.542933943176024, 18.880788748351833 ], [ 73.542933943176024, 18.889734406626758 ], [ 73.551208832086374, 18.899645207467152 ], [ 73.551286082693352, 18.909476060896473 ], [ 73.551363289955106, 18.918291722567012 ], [ 73.570386912633424, 18.926267695494733 ], [ 73.579215537463753, 18.935916864805904 ], [ 73.579215537463753, 18.94401321224251 ], [ 73.579215537463753, 18.952959114807367 ], [ 73.579291449905867, 18.961905008445871 ], [ 73.579291449905867, 18.973083130072659 ], [ 73.579291449905867, 18.98191415122896 ], [ 73.579291449905867, 18.988962167155425 ], [ 73.664665044452434, 18.997908136180001 ], [ 73.682480259195316, 19.006854096271542 ], [ 73.682480259195316, 19.015800047426424 ], [ 73.682480259195316, 19.026038430946443 ], [ 73.682480259195316, 19.03498501741003 ], [ 73.653933761580177, 19.043803614461552 ], [ 73.653861396509171, 19.052488234169232 ], [ 73.653861396509171, 19.06143459715015 ], [ 73.653933761580177, 19.070246977026684 ], [ 73.682480259195316, 19.0789193688788 ], [ 73.701436560750594, 19.087865499446938 ], [ 73.701436560750594, 19.096880887534777 ], [ 73.682480259195316, 19.105827035107694 ], [ 73.653933761580177, 19.114773173733862 ], [ 73.653861396509171, 19.12371930340969 ], [ 73.653788991026829, 19.133460467632116 ], [ 73.653788991026829, 19.142406979282459 ], [ 73.653861396509171, 19.151161075534134 ], [ 73.653933761580177, 19.16010747264329 ], [ 73.671820658499669, 19.168310240038288 ], [ 73.671892527550838, 19.177185692870175 ], [ 73.671964356638654, 19.186202242669093 ], [ 73.681201165880708, 19.195288018173095 ], [ 73.681201165880708, 19.204371977273802 ], [ 73.681201165880708, 19.213318086393194 ], [ 73.681201165880708, 19.222264186530001 ], [ 73.681201165880708, 19.231278604991722 ], [ 73.709418810385145, 19.240426878436676 ], [ 73.709488751559093, 19.249373087020448 ], [ 73.7468252839153, 19.259382950799573 ], [ 73.765671852510664, 19.268329673446502 ], [ 73.765806074192014, 19.277217668148758 ], [ 73.860433549712099, 19.286164343576434 ], [ 73.860495435371604, 19.294496309747878 ], [ 73.869335901388865, 19.303313782169649 ], [ 73.869335901388865, 19.312389001873392 ], [ 73.869335901388865, 19.322463097188052 ], [ 73.869274187983692, 19.331243599345676 ], [ 73.869274187983692, 19.340076961589901 ], [ 73.869335901388865, 19.349023690342712 ], [ 73.87842911328211, 19.35785489995121 ], [ 73.87842911328211, 19.366743032135773 ], [ 73.87842911328211, 19.375689647340639 ], [ 73.87842911328211, 19.384636253569084 ], [ 73.869335901388865, 19.393582850817573 ], [ 73.869274187983692, 19.402588076759891 ], [ 73.869212440430474, 19.411534685183973 ], [ 73.869150658720628, 19.420481284620642 ], [ 73.774259906748881, 19.428754773222419 ], [ 73.774259906748881, 19.43770102049973 ], [ 73.77422634005022, 19.446453136677551 ], [ 73.774192773351558, 19.455464502894504 ], [ 73.77399098378072, 19.464345393441526 ], [ 73.773789194209868, 19.473356806253548 ], [ 73.769089252062685, 19.482367780131796 ], [ 73.764389309915487, 19.491378314339727 ], [ 73.759758188725939, 19.500388408140697 ] ] } }
]
}
