{
"type": "FeatureCollection",
"name": "urban_areas",
"crs": { "type": "name", "properties": { "name": "urn:ogc:def:crs:OGC:1.3:CRS84" } },
"xy_coordinate_resolution": 1e-05,
"features": [
{ "type": "Feature", "properties": { "block_name": "MAVAL", "block_lgd": 4519, "area_km2": 39.2 }, "geometry": { "type": "Polygon", "coordinates": [ [ [ 73.72048, 18.70543 ], [ 73.71918, 18.69446 ], [ 73.71696, 18.68654 ], [ 73.71401, 18.68677 ], [ 73.70997, 18.6881 ], [ 73.70545, 18.69273 ], [ 73.69013, 18.69624 ], [ 73.68671, 18.70894 ], [ 73.68415, 18.71047 ], [ 73.68071, 18.70923 ], [ 73.66703, 18.71188 ], [ 73.66267, 18.71433 ], [ 73.65841, 18.7148 ], [ 73.65607, 18.71642 ], [ 73.65432, 18.71654 ], [ 73.64932, 18.72009 ], [ 73.64471, 18.72045 ], [ 73.63724, 18.7257 ], [ 73.62744, 18.72531 ], [ 73.62264, 18.72693 ], [ 73.619, 18.72911 ], [ 73.62106, 18.7351 ], [ 73.62277, 18.73611 ], [ 73.62545, 18.74148 ], [ 73.62581, 18.75328 ], [ 73.62748, 18.75283 ], [ 73.62857, 18.75429 ], [ 73.63037, 18.75232 ], [ 73.6322, 18.75329 ], [ 73.63403, 18.75145 ], [ 73.63638, 18.7541 ], [ 73.63769, 18.75234 ], [ 73.63932, 18.75328 ], [ 73.64044, 18.75154 ], [ 73.6426, 18.75252 ], [ 73.64378, 18.75161 ], [ 73.64391, 18.75027 ], [ 73.64559, 18.74954 ], [ 73.6478, 18.75106 ], [ 73.65103, 18.75045 ], [ 73.65114, 18.75206 ], [ 73.65257, 18.75235 ], [ 73.65439, 18.75137 ], [ 73.65515, 18.75178 ], [ 73.6572, 18.75015 ], [ 73.6634, 18.75121 ], [ 73.6674, 18.74617 ], [ 73.66942, 18.74621 ], [ 73.66985, 18.74197 ], [ 73.67338, 18.74106 ], [ 73.67692, 18.74095 ], [ 73.6779, 18.74199 ], [ 73.68486, 18.74102 ], [ 73.6935, 18.74327 ], [ 73.69615, 18.74319 ], [ 73.69808, 18.74408 ], [ 73.70122, 18.74881 ], [ 73.70203, 18.74846 ], [ 73.70882, 18.74345 ], [ 73.71339, 18.73775 ], [ 73.71226, 18.73183 ], [ 73.70964, 18.72689 ], [ 73.70921, 18.72425 ], [ 73.71367, 18.714 ], [ 73.71219, 18.71155 ], [ 73.71203, 18.70841 ], [ 73.71498, 18.70428 ], [ 73.72048, 18.70543 ] ] ] } },
{ "type": "Feature", "properties": { "block_name": "MAVAL", "block_lgd": 4519, "area_km2": 45.07 }, "geometry": { "type": "Polygon", "coordinates": [ [ [ 73.36335, 18.74939 ], [ 73.3509, 18.75763 ], [ 73.36231, 18.77089 ], [ 73.364, 18.77439 ], [ 73.36428, 18.78003 ], [ 73.36736, 18.79244 ], [ 73.36889, 18.79483 ], [ 73.37063, 18.7945 ], [ 73.37374, 18.78828 ], [ 73.37552, 18.78695 ], [ 73.37202, 18.77457 ], [ 73.37364, 18.76674 ], [ 73.37671, 18.76534 ], [ 73.37718, 18.76432 ], [ 73.37934, 18.76481 ], [ 73.38185, 18.76242 ], [ 73.386, 18.7631 ], [ 73.38831, 18.76563 ], [ 73.39155, 18.76511 ], [ 73.39233, 18.77249 ], [ 73.3916, 18.77393 ], [ 73.39316, 18.77935 ], [ 73.39535, 18.77994 ], [ 73.39821, 18.7856 ], [ 73.39958, 18.786 ], [ 73.40346, 18.78447 ], [ 73.4062, 18.77758 ], [ 73.41076, 18.77898 ], [ 73.41507, 18.77224 ], [ 73.42162, 18.77479 ], [ 73.42238, 18.78041 ], [ 73.42004, 18.78395 ], [ 73.41711, 18.79173 ], [ 73.41274, 18.79764 ], [ 73.41044, 18.79888 ], [ 73.40815, 18.79853 ], [ 73.40485, 18.80115 ], [ 73.40047, 18.80216 ], [ 73.39183, 18.80349 ], [ 73.38748, 18.80299 ], [ 73.38747, 18.80485 ], [ 73.39727, 18.80969 ], [ 73.39938, 18.812 ], [ 73.40701, 18.80592 ], [ 73.41944, 18.80724 ], [ 73.42464, 18.80457 ], [ 73.42652, 18.80512 ], [ 73.43259, 18.8018 ], [ 73.43959, 18.8023 ], [ 73.44301, 18.79846 ], [ 73.45145, 18.79558 ], [ 73.44821, 18.79382 ], [ 73.44838, 18.79191 ], [ 73.4455, 18.78693 ], [ 73.44648, 18.78231 ], [ 73.44507, 18.77517 ], [ 73.44659, 18.77177 ], [ 73.44568, 18.77235 ], [ 73.43532, 18.76841 ], [ 73.42953, 18.76717 ], [ 73.43013, 18.7644 ], [ 73.43094, 18.76448 ], [ 73.43078, 18.76035 ], [ 73.43165, 18.75968 ], [ 73.43166, 18.75686 ], [ 73.42969, 18.75596 ], [ 73.43218, 18.75297 ], [ 73.4314, 18.75094 ], [ 73.42974, 18.74969 ], [ 73.42943, 18.74588 ], [ 73.41617, 18.74364 ], [ 73.41095, 18.72825 ], [ 73.40929, 18.72569 ], [ 73.41158, 18.71471 ], [ 73.39995, 18.71307 ], [ 73.39907, 18.71749 ], [ 73.39598, 18.71981 ], [ 73.39553, 18.72391 ], [ 73.39317, 18.72672 ], [ 73.39312, 18.72906 ], [ 73.39172, 18.72948 ], [ 73.39265, 18.7318 ], [ 73.3904, 18.736 ], [ 73.39062, 18.73723 ], [ 73.38709, 18.73822 ], [ 73.38432, 18.74605 ], [ 73.38093, 18.74704 ], [ 73.37334, 18.74734 ], [ 73.36993, 18.74661 ], [ 73.36335, 18.74939 ] ] ] } },
{ "type": "Feature", "properties": { "block_name": "MAVAL", "block_lgd": 4519, "area_km2": 2.23 }, "geometry": { "type": "Polygon", "coordinates": [ [ [ 73.53987, 18.76862 ], [ 73.54577, 18.76613 ], [ 73.5458, 18.7654 ], [ 73.54431, 18.7565 ], [ 73.54017, 18.74401 ], [ 73.53736, 18.7467 ], [ 73.53306, 18.75783 ], [ 73.53271, 18.76107 ], [ 73.53336, 18.7641 ], [ 73.53802, 18.76379 ], [ 73.53842, 18.76745 ], [ 73.53987, 18.76862 ] ] ] } },
{ "type": "Feature", "properties": { "block_name": "MAVAL", "block_lgd": 4519, "area_km2": 6.94 }, "geometry": { "type": "Polygon", "coordinates": [ [ [ 73.55517, 18.72328 ], [ 73.55605, 18.72795 ], [ 73.56577, 18.72895 ], [ 73.56843, 18.72794 ], [ 73.57368, 18.72928 ], [ 73.58129, 18.72777 ], [ 73.5829, 18.73641 ], [ 73.57823, 18.75018 ], [ 73.58384, 18.75192 ], [ 73.58829, 18.7482 ], [ 73.58872, 18.7426 ], [ 73.5928, 18.72472 ], [ 73.5889, 18.72473 ], [ 73.58163, 18.72734 ], [ 73.57893, 18.7094 ], [ 73.57811, 18.70915 ], [ 73.57829, 18.71001 ], [ 73.57449, 18.71178 ], [ 73.57418, 18.71275 ], [ 73.57233, 18.71312 ], [ 73.57093, 18.71184 ], [ 73.57084, 18.71365 ], [ 73.56857, 18.71523 ], [ 73.56862, 18.716 ], [ 73.56576, 18.71617 ], [ 73.56588, 18.7123 ], [ 73.56451, 18.71322 ], [ 73.56279, 18.71309 ], [ 73.56268, 18.71238 ], [ 73.56077, 18.71407 ], [ 73.55805, 18.7137 ], [ 73.55517, 18.72328 ] ] ] } },
{ "type": "Feature", "properties": { "block_name": "MAVAL", "block_lgd": 4519, "area_km2": 1.38 }, "geometry": { "type": "Polygon", "coordinates": [ [ [ 73.47807, 18.75066 ], [ 73.47928, 18.75205 ], [ 73.48294, 18.75295 ], [ 73.48765, 18.75171 ], [ 73.48833, 18.74183 ], [ 73.48394, 18.73644 ], [ 73.47981, 18.74205 ], [ 73.47807, 18.75066 ] ] ] } },
{ "type": "Feature", "properties": { "block_name": "MAVAL", "block_lgd": 4519, "area_km2": 1.62 }, "geometry": { "type": "Polygon", "coordinates": [ [ [ 73.48931, 18.66317 ], [ 73.48818, 18.66655 ], [ 73.48944, 18.66939 ], [ 73.48623, 18.67056 ], [ 73.48458, 18.67478 ], [ 73.48559, 18.67655 ], [ 73.49138, 18.67642 ], [ 73.49701, 18.67771 ], [ 73.49929, 18.66579 ], [ 73.49766, 18.6667 ], [ 73.4937, 18.66391 ], [ 73.48931, 18.66317 ] ] ] } },
{ "type": "Feature", "properties": { "block_name": "MAVAL", "block_lgd": 4519, "area_km2": 0.74 }, "geometry": { "type": "Polygon", "coordinates": [ [ [ 73.49891, 18.62415 ], [ 73.49514, 18.62639 ], [ 73.49367, 18.62549 ], [ 73.49377, 18.62439 ], [ 73.49226, 18.62381 ], [ 73.49245, 18.62194 ], [ 73.49089, 18.6218 ], [ 73.4917, 18.62008 ], [ 73.49389, 18.61886 ], [ 73.49446, 18.61389 ], [ 73.49031, 18.62065 ], [ 73.48776, 18.62014 ], [ 73.4868, 18.61775 ], [ 73.48462, 18.61788 ], [ 73.48546, 18.61621 ], [ 73.4845, 18.61581 ], [ 73.48397, 18.61734 ], [ 73.48499, 18.61828 ], [ 73.48471, 18.62053 ], [ 73.487, 18.62324 ], [ 73.48599, 18.62431 ], [ 73.48532, 18.62391 ], [ 73.48537, 18.62513 ], [ 73.48894, 18.62601 ], [ 73.48967, 18.62475 ], [ 73.49063, 18.62627 ], [ 73.49016, 18.62698 ], [ 73.49711, 18.62696 ], [ 73.49994, 18.62449 ], [ 73.49891, 18.62111 ], [ 73.49891, 18.62415 ] ] ] } },
{ "type": "Feature", "properties": { "block_name": "MAVAL", "block_lgd": 4519, "area_km2": 1.92 }, "geometry": { "type": "Polygon", "coordinates": [ [ [ 73.60522, 18.73837 ], [ 73.60578, 18.7397 ], [ 73.607, 18.73969 ], [ 73.60646, 18.74123 ], [ 73.60801, 18.74093 ], [ 73.60554, 18.74604 ], [ 73.60492, 18.75413 ], [ 73.60617, 18.75367 ], [ 73.60756, 18.75513 ], [ 73.6094, 18.75455 ], [ 73.61347, 18.75563 ], [ 73.61459, 18.75494 ], [ 73.61438, 18.75293 ], [ 73.6135, 18.75272 ], [ 73.61552, 18.75257 ], [ 73.61493, 18.74151 ], [ 73.61324, 18.74063 ], [ 73.61238, 18.73724 ], [ 73.61317, 18.73448 ], [ 73.60931, 18.73596 ], [ 73.60907, 18.73501 ], [ 73.60828, 18.73517 ], [ 73.60794, 18.73657 ], [ 73.60623, 18.73631 ], [ 73.6059, 18.73837 ], [ 73.60522, 18.73837 ] ] ] } },
{ "type": "Feature", "properties": { "block_name": "MULSHI", "block_lgd": 4520, "area_km2": 24.57 }, "geometry": { "type": "Polygon", "coordinates": [ [ [ 73.73259, 18.64337 ], [ 73.73447, 18.64191 ], [ 73.73543, 18.64216 ], [ 73.73667, 18.64468 ], [ 73.73807, 18.64541 ], [ 73.74319, 18.64115 ], [ 73.74756, 18.64046 ], [ 73.75128, 18.64194 ], [ 73.75331, 18.64167 ], [ 73.75363, 18.63191 ], [ 73.75772, 18.62911 ], [ 73.76747, 18.62456 ], [ 73.76877, 18.62449 ], [ 73.77632, 18.6283 ], [ 73.77793, 18.62795 ], [ 73.77809, 18.62431 ], [ 73.78231, 18.61736 ], [ 73.78389, 18.61635 ], [ 73.78566, 18.61683 ], [ 73.784, 18.61169 ], [ 73.777, 18.60361 ], [ 73.78045, 18.5987 ], [ 73.78071, 18.59382 ], [ 73.77757, 18.58759 ], [ 73.77479, 18.58861 ], [ 73.7681, 18.58729 ], [ 73.76156, 18.58855 ], [ 73.75579, 18.58469 ], [ 73.75581, 18.58578 ], [ 73.75492, 18.58509 ], [ 73.75364, 18.58789 ], [ 73.75095, 18.58798 ], [ 73.74875, 18.59226 ], [ 73.74417, 18.59456 ], [ 73.7392, 18.60112 ], [ 73.73741, 18.6049 ], [ 73.73859, 18.60659 ], [ 73.73997, 18.61355 ], [ 73.73429, 18.61441 ], [ 73.72878, 18.61665 ], [ 73.72203, 18.61753 ], [ 73.72859, 18.6326 ], [ 73.73136, 18.64223 ], [ 73.73259, 18.64337 ] ] ] } },
{ "type": "Feature", "properties": { "block_name": "MULSHI", "block_lgd": 4520, "area_km2": 5.7 }, "geometry": { "type": "Polygon", "coordinates": [ [ [ 73.74993, 18.53129 ], [ 73.75782, 18.52893 ], [ 73.76741, 18.52823 ], [ 73.77166, 18.52886 ], [ 73.77754, 18.5271 ], [ 73.77646, 18.52606 ], [ 73.77746, 18.52368 ], [ 73.77548, 18.52118 ], [ 73.77674, 18.51706 ], [ 73.77426, 18.51305 ], [ 73.77211, 18.5122 ], [ 73.77001, 18.51326 ], [ 73.76889, 18.51248 ], [ 73.76883, 18.50954 ], [ 73.76642, 18.50954 ], [ 73.76779, 18.50851 ], [ 73.76614, 18.50628 ], [ 73.76188, 18.50536 ], [ 73.75846, 18.51177 ], [ 73.75591, 18.51417 ], [ 73.7529, 18.51465 ], [ 73.74957, 18.52085 ], [ 73.74656, 18.52364 ], [ 73.74709, 18.52952 ], [ 73.74993, 18.53129 ] ] ] } },
{ "type": "Feature", "properties": { "block_name": "MULSHI", "block_lgd": 4520, "area_km2": 4.69 }, "geometry": { "type": "Polygon", "coordinates": [ [ [ 73.6554, 18.45475 ], [ 73.6515, 18.45087 ], [ 73.64892, 18.45105 ], [ 73.64771, 18.44861 ], [ 73.64408, 18.44877 ], [ 73.64292, 18.44957 ], [ 73.64233, 18.44742 ], [ 73.63946, 18.44518 ], [ 73.63363, 18.44238 ], [ 73.62964, 18.44332 ], [ 73.62741, 18.44536 ], [ 73.62788, 18.44621 ], [ 73.62709, 18.4468 ], [ 73.6291, 18.44955 ], [ 73.63136, 18.45126 ], [ 73.63372, 18.45144 ], [ 73.63277, 18.45458 ], [ 73.62965, 18.45398 ], [ 73.62931, 18.45715 ], [ 73.63046, 18.45974 ], [ 73.63229, 18.45922 ], [ 73.63508, 18.45543 ], [ 73.63747, 18.45783 ], [ 73.63516, 18.46209 ], [ 73.63576, 18.46411 ], [ 73.63649, 18.46368 ], [ 73.63631, 18.46713 ], [ 73.64984, 18.46592 ], [ 73.6554, 18.45475 ] ] ] } },
{ "type": "Feature", "properties": { "block_name": "MULSHI", "block_lgd": 4520, "area_km2": 4.97 }, "geometry": { "type": "Polygon", "coordinates": [ [ [ 73.69422, 18.62004 ], [ 73.70765, 18.6177 ], [ 73.7062, 18.61337 ], [ 73.70165, 18.61148 ], [ 73.69975, 18.60951 ], [ 73.70065, 18.60592 ], [ 73.69999, 18.60308 ], [ 73.69611, 18.6006 ], [ 73.68651, 18.6018 ], [ 73.68437, 18.61809 ], [ 73.68486, 18.63208 ], [ 73.68619, 18.63198 ], [ 73.68682, 18.63311 ], [ 73.68855, 18.63263 ], [ 73.68932, 18.63362 ], [ 73.69059, 18.63237 ], [ 73.69122, 18.63427 ], [ 73.69261, 18.63381 ], [ 73.69309, 18.63011 ], [ 73.69153, 18.62427 ], [ 73.69367, 18.62447 ], [ 73.69446, 18.62312 ], [ 73.69422, 18.62004 ] ] ] } },
{ "type": "Feature", "properties": { "block_name": "MULSHI", "block_lgd": 4520, "area_km2": 0.75 }, "geometry": { "type": "Polygon", "coordinates": [ [ [ 73.63924, 18.54557 ], [ 73.64048, 18.54627 ], [ 73.64228, 18.54534 ], [ 73.64265, 18.54329 ], [ 73.64395, 18.5436 ], [ 73.64419, 18.54232 ], [ 73.64908, 18.54258 ], [ 73.64963, 18.54143 ], [ 73.64883, 18.54105 ], [ 73.6491, 18.53973 ], [ 73.64789, 18.53918 ], [ 73.64865, 18.53889 ], [ 73.64828, 18.53714 ], [ 73.63943, 18.53682 ], [ 73.63924, 18.54557 ] ] ] } },
{ "type": "Feature", "properties": { "block_name": "MULSHI", "block_lgd": 4520, "area_km2": 2.39 }, "geometry": { "type": "Polygon", "coordinates": [ [ [ 73.55468, 18.5576 ], [ 73.55583, 18.55608 ], [ 73.55521, 18.55227 ], [ 73.55131, 18.55011 ], [ 73.54976, 18.54758 ], [ 73.54656, 18.54509 ], [ 73.54488, 18.54156 ], [ 73.54461, 18.53541 ], [ 73.54124, 18.53428 ], [ 73.54018, 18.53776 ], [ 73.54121, 18.53818 ], [ 73.54125, 18.53957 ], [ 73.54036, 18.54409 ], [ 73.5394, 18.54488 ], [ 73.5403, 18.54528 ], [ 73.53971, 18.54782 ], [ 73.5409, 18.5499 ], [ 73.54002, 18.55183 ], [ 73.542, 18.55469 ], [ 73.54255, 18.56002 ], [ 73.54694, 18.55955 ], [ 73.55088, 18.55731 ], [ 73.55468, 18.5576 ] ] ] } },
{ "type": "Feature", "properties": { "block_name": "MULSHI", "block_lgd": 4520, "area_km2": 2.94 }, "geometry": { "type": "Polygon", "coordinates": [ [ [ 73.47672, 18.48726 ], [ 73.47829, 18.48643 ], [ 73.47681, 18.48515 ], [ 73.47396, 18.48488 ], [ 73.47261, 18.48218 ], [ 73.4715, 18.483 ], [ 73.4703, 18.4823 ], [ 73.47021, 18.48086 ], [ 73.46779, 18.48336 ], [ 73.46689, 18.48204 ], [ 73.46503, 18.4832 ], [ 73.46477, 18.48125 ], [ 73.46326, 18.48132 ], [ 73.46277, 18.48674 ], [ 73.46485, 18.49646 ], [ 73.46422, 18.49982 ], [ 73.46995, 18.50018 ], [ 73.47366, 18.50404 ], [ 73.47719, 18.50425 ], [ 73.47768, 18.50259 ], [ 73.47674, 18.49696 ], [ 73.47767, 18.48914 ], [ 73.47672, 18.48726 ] ] ] } },
{ "type": "Feature", "properties": { "block_name": "MULSHI", "block_lgd": 4520, "area_km2": 3.18 }, "geometry": { "type": "Polygon", "coordinates": [ [ [ 73.39542, 18.66977 ], [ 73.39654, 18.67611 ], [ 73.40948, 18.67377 ], [ 73.41831, 18.67469 ], [ 73.42547, 18.67277 ], [ 73.42753, 18.67368 ], [ 73.42666, 18.6728 ], [ 73.427, 18.66797 ], [ 73.42782, 18.66815 ], [ 73.42896, 18.6676 ], [ 73.42545, 18.66727 ], [ 73.42116, 18.66506 ], [ 73.41777, 18.66566 ], [ 73.40968, 18.66445 ], [ 73.3958, 18.66696 ], [ 73.39542, 18.66977 ] ] ] } },
{ "type": "Feature", "properties": { "block_name": "MULSHI", "block_lgd": 4520, "area_km2": 7.31 }, "geometry": { "type": "Polygon", "coordinates": [ [ [ 73.50835, 18.60398 ], [ 73.50245, 18.6049 ], [ 73.50294, 18.60699 ], [ 73.50085, 18.60737 ], [ 73.50313, 18.6148 ], [ 73.50635, 18.61956 ], [ 73.50832, 18.62049 ], [ 73.51135, 18.62386 ], [ 73.51886, 18.62734 ], [ 73.52301, 18.63097 ], [ 73.52886, 18.6307 ], [ 73.53297, 18.63159 ], [ 73.53646, 18.62941 ], [ 73.53787, 18.62367 ], [ 73.53093, 18.61676 ], [ 73.52868, 18.61598 ], [ 73.52597, 18.61332 ], [ 73.52476, 18.60597 ], [ 73.52126, 18.60229 ], [ 73.51202, 18.60347 ], [ 73.5119, 18.60473 ], [ 73.51, 18.60413 ], [ 73.50862, 18.60571 ], [ 73.5068, 18.60564 ], [ 73.50835, 18.60398 ] ] ] } },
{ "type": "Feature", "properties": { "block_name": "VELHE", "block_lgd": 4524, "area_km2": 10.48 }, "geometry": { "type": "Polygon", "coordinates": [ [ [ 73.58473, 18.32775 ], [ 73.58871, 18.32883 ], [ 73.59168, 18.33207 ], [ 73.59671, 18.33328 ], [ 73.60423, 18.33708 ], [ 73.60858, 18.33615 ], [ 73.61015, 18.33798 ], [ 73.61164, 18.33832 ], [ 73.613, 18.33754 ], [ 73.61283, 18.33284 ], [ 73.61429, 18.32812 ], [ 73.61596, 18.32581 ], [ 73.61385, 18.32413 ], [ 73.61546, 18.31828 ], [ 73.61512, 18.31621 ], [ 73.61604, 18.31552 ], [ 73.61541, 18.3143 ], [ 73.61654, 18.31193 ], [ 73.61568, 18.3114 ], [ 73.61659, 18.31035 ], [ 73.6113, 18.30552 ], [ 73.60843, 18.30776 ], [ 73.60561, 18.30615 ], [ 73.60316, 18.30661 ], [ 73.60122, 18.30592 ], [ 73.59075, 18.30807 ], [ 73.58763, 18.30729 ], [ 73.58082, 18.30826 ], [ 73.58046, 18.31013 ], [ 73.57901, 18.31088 ], [ 73.57718, 18.31383 ], [ 73.57877, 18.3183 ], [ 73.58111, 18.3196 ], [ 73.58238, 18.32412 ], [ 73.58473, 18.32775 ] ] ] } },
{ "type": "Feature", "properties": { "block_name": "BHOR", "block_lgd": 4513, "area_km2": 20.1 }, "geometry": { "type": "Polygon", "coordinates": [ [ [ 73.84733, 18.17563 ], [ 73.8475, 18.1732 ], [ 73.84375, 18.17108 ], [ 73.84148, 18.17297 ], [ 73.83992, 18.17277 ], [ 73.83938, 18.17498 ], [ 73.83756, 18.17456 ], [ 73.83798, 18.17513 ], [ 73.83624, 18.17572 ], [ 73.83657, 18.17837 ], [ 73.83372, 18.17819 ], [ 73.83141, 18.17608 ], [ 73.83152, 18.17802 ], [ 73.83069, 18.17896 ], [ 73.83262, 18.18141 ], [ 73.83219, 18.1831 ], [ 73.83078, 18.18273 ], [ 73.82889, 18.18446 ], [ 73.82485, 18.18506 ], [ 73.82327, 18.18687 ], [ 73.8208, 18.18419 ], [ 73.81977, 18.1859 ], [ 73.82113, 18.19104 ], [ 73.81852, 18.19052 ], [ 73.81557, 18.19267 ], [ 73.81383, 18.19162 ], [ 73.81118, 18.1956 ], [ 73.80792, 18.19432 ], [ 73.80823, 18.19744 ], [ 73.80608, 18.19892 ], [ 73.80476, 18.20124 ], [ 73.8022, 18.20056 ], [ 73.80022, 18.20194 ], [ 73.79831, 18.20078 ], [ 73.79811, 18.19841 ], [ 73.79763, 18.19756 ], [ 73.79559, 18.20276 ], [ 73.79368, 18.20357 ], [ 73.79242, 18.20281 ], [ 73.79096, 18.2033 ], [ 73.79123, 18.20078 ], [ 73.78871, 18.20084 ], [ 73.78816, 18.19866 ], [ 73.7859, 18.19868 ], [ 73.78509, 18.19755 ], [ 73.78541, 18.19605 ], [ 73.78258, 18.19601 ], [ 73.7813, 18.19422 ], [ 73.78218, 18.19173 ], [ 73.78311, 18.19188 ], [ 73.78354, 18.19076 ], [ 73.78456, 18.19107 ], [ 73.78478, 18.19009 ], [ 73.78186, 18.19103 ], [ 73.78168, 18.1923 ], [ 73.78046, 18.19307 ], [ 73.77928, 18.19204 ], [ 73.78019, 18.19428 ], [ 73.77971, 18.1958 ], [ 73.78118, 18.197 ], [ 73.78019, 18.19809 ], [ 73.78129, 18.19814 ], [ 73.783, 18.20019 ], [ 73.78262, 18.20099 ], [ 73.78462, 18.20182 ], [ 73.78536, 18.20352 ], [ 73.7829, 18.20482 ], [ 73.77889, 18.20437 ], [ 73.77575, 18.20619 ], [ 73.7759, 18.20732 ], [ 73.77209, 18.20864 ], [ 73.77264, 18.20987 ], [ 73.77071, 18.21066 ], [ 73.76956, 18.21418 ], [ 73.76723, 18.21334 ], [ 73.76849, 18.2157 ], [ 73.76636, 18.21564 ], [ 73.76842, 18.21768 ], [ 73.76856, 18.21889 ], [ 73.76704, 18.21951 ], [ 73.76529, 18.21872 ], [ 73.76639, 18.22083 ], [ 73.76529, 18.22205 ], [ 73.76287, 18.22181 ], [ 73.76194, 18.22323 ], [ 73.76109, 18.22257 ], [ 73.76, 18.22417 ], [ 73.75843, 18.22468 ], [ 73.75763, 18.22345 ], [ 73.7533, 18.22377 ], [ 73.75463, 18.2209 ], [ 73.75339, 18.22033 ], [ 73.75255, 18.22012 ], [ 73.75182, 18.22165 ], [ 73.75037, 18.22128 ], [ 73.7491, 18.2224 ], [ 73.74659, 18.22015 ], [ 73.74487, 18.2207 ], [ 73.74218, 18.21843 ], [ 73.7434, 18.21689 ], [ 73.74306, 18.21498 ], [ 73.74072, 18.2166 ], [ 73.73714, 18.21386 ], [ 73.73343, 18.21425 ], [ 73.733, 18.21282 ], [ 73.73085, 18.214 ], [ 73.73015, 18.2122 ], [ 73.7278, 18.21191 ], [ 73.72528, 18.21013 ], [ 73.71786, 18.20965 ], [ 73.71532, 18.20679 ], [ 73.71393, 18.2013 ], [ 73.70808, 18.20084 ], [ 73.70685, 18.19891 ], [ 73.70733, 18.19786 ], [ 73.70502, 18.19831 ], [ 73.70602, 18.19562 ], [ 73.70523, 18.19591 ], [ 73.70405, 18.19484 ], [ 73.7015, 18.19552 ], [ 73.70205, 18.19987 ], [ 73.70117, 18.20101 ], [ 73.703, 18.20125 ], [ 73.70311, 18.20391 ], [ 73.70452, 18.20372 ], [ 73.70623, 18.20637 ], [ 73.70445, 18.20586 ], [ 73.70444, 18.20755 ], [ 73.70348, 18.20872 ], [ 73.70147, 18.20922 ], [ 73.70103, 18.211 ], [ 73.69556, 18.2123 ], [ 73.69624, 18.21338 ], [ 73.6976, 18.21354 ], [ 73.69914, 18.21284 ], [ 73.70018, 18.21362 ], [ 73.70235, 18.21261 ], [ 73.70334, 18.21452 ], [ 73.70344, 18.21082 ], [ 73.70641, 18.21132 ], [ 73.70626, 18.20929 ], [ 73.71028, 18.20845 ], [ 73.71068, 18.20405 ], [ 73.71149, 18.20386 ], [ 73.71132, 18.20665 ], [ 73.71366, 18.2061 ], [ 73.71425, 18.20944 ], [ 73.71511, 18.20978 ], [ 73.71473, 18.21078 ], [ 73.71729, 18.21273 ], [ 73.71892, 18.21263 ], [ 73.71981, 18.21375 ], [ 73.72027, 18.21228 ], [ 73.72221, 18.21293 ], [ 73.72366, 18.21239 ], [ 73.72381, 18.21343 ], [ 73.72554, 18.21364 ], [ 73.7259, 18.21537 ], [ 73.72737, 18.21417 ], [ 73.72892, 18.21578 ], [ 73.72851, 18.21764 ], [ 73.72959, 18.21913 ], [ 73.73029, 18.21795 ], [ 73.73173, 18.21832 ], [ 73.7314, 18.21746 ], [ 73.73276, 18.21773 ], [ 73.73356, 18.21908 ], [ 73.73558, 18.21787 ], [ 73.73558, 18.21923 ], [ 73.73363, 18.22091 ], [ 73.736, 18.2213 ], [ 73.7347, 18.22425 ], [ 73.73565, 18.22438 ], [ 73.7379, 18.22222 ], [ 73.73879, 18.22588 ], [ 73.73986, 18.22318 ], [ 73.74156, 18.22225 ], [ 73.74181, 18.22892 ], [ 73.74193, 18.22751 ], [ 73.74356, 18.2259 ], [ 73.74454, 18.22765 ], [ 73.7455, 18.22718 ], [ 73.74667, 18.22791 ], [ 73.74724, 18.22982 ], [ 73.74816, 18.22825 ], [ 73.75104, 18.22783 ], [ 73.75198, 18.22987 ], [ 73.75395, 18.22995 ], [ 73.75532, 18.23158 ], [ 73.75779, 18.22926 ], [ 73.76172, 18.23211 ], [ 73.76362, 18.22947 ], [ 73.76485, 18.23109 ], [ 73.76621, 18.22858 ], [ 73.76709, 18.22841 ], [ 73.76672, 18.22674 ], [ 73.76752, 18.22523 ], [ 73.77124, 18.22533 ], [ 73.77073, 18.22356 ], [ 73.77211, 18.22266 ], [ 73.77215, 18.22097 ], [ 73.77372, 18.22066 ], [ 73.77287, 18.2194 ], [ 73.77448, 18.21688 ], [ 73.77395, 18.21488 ], [ 73.77673, 18.21552 ], [ 73.77727, 18.21472 ], [ 73.77543, 18.21225 ], [ 73.77581, 18.21122 ], [ 73.77881, 18.2109 ], [ 73.77974, 18.21281 ], [ 73.78192, 18.21099 ], [ 73.78449, 18.21077 ], [ 73.78363, 18.21377 ], [ 73.78617, 18.21305 ], [ 73.78738, 18.21676 ], [ 73.78951, 18.21604 ], [ 73.79042, 18.21468 ], [ 73.79172, 18.2164 ], [ 73.79294, 18.21615 ], [ 73.7941, 18.21439 ], [ 73.79379, 18.21278 ], [ 73.79647, 18.21008 ], [ 73.79724, 18.21312 ], [ 73.79876, 18.21378 ], [ 73.80323, 18.21933 ], [ 73.806, 18.22569 ], [ 73.81137, 18.23221 ], [ 73.8138, 18.22928 ], [ 73.80875, 18.22384 ], [ 73.80716, 18.21946 ], [ 73.80547, 18.21828 ], [ 73.80531, 18.21645 ], [ 73.80045, 18.21092 ], [ 73.80079, 18.20875 ], [ 73.80344, 18.20845 ], [ 73.80581, 18.20685 ], [ 73.80706, 18.20682 ], [ 73.80727, 18.20765 ], [ 73.80854, 18.20672 ], [ 73.80914, 18.20726 ], [ 73.80964, 18.20477 ], [ 73.81165, 18.20632 ], [ 73.8113, 18.20717 ], [ 73.8124, 18.20954 ], [ 73.8129, 18.20961 ], [ 73.81241, 18.20901 ], [ 73.81435, 18.20273 ], [ 73.81823, 18.20194 ], [ 73.81893, 18.19992 ], [ 73.8219, 18.20005 ], [ 73.82226, 18.19796 ], [ 73.82754, 18.19595 ], [ 73.82893, 18.19345 ], [ 73.83233, 18.19597 ], [ 73.83294, 18.19266 ], [ 73.83468, 18.19084 ], [ 73.83601, 18.19158 ], [ 73.8375, 18.19021 ], [ 73.83868, 18.19126 ], [ 73.84051, 18.1888 ], [ 73.84199, 18.18844 ], [ 73.84114, 18.1868 ], [ 73.8433, 18.18618 ], [ 73.84428, 18.18279 ], [ 73.84554, 18.18327 ], [ 73.8465, 18.18508 ], [ 73.84756, 18.18429 ], [ 73.84863, 18.18602 ], [ 73.851, 18.1871 ], [ 73.85045, 18.18784 ], [ 73.85247, 18.18989 ], [ 73.8519, 18.19004 ], [ 73.85213, 18.19022 ], [ 73.85173, 18.19162 ], [ 73.85189, 18.19223 ], [ 73.85279, 18.18989 ], [ 73.85157, 18.1877 ], [ 73.85276, 18.1881 ], [ 73.85333, 18.1856 ], [ 73.85514, 18.18667 ], [ 73.85694, 18.18579 ], [ 73.85821, 18.18929 ], [ 73.85952, 18.18696 ], [ 73.8614, 18.18792 ], [ 73.86109, 18.18633 ], [ 73.86198, 18.18596 ], [ 73.86312, 18.18736 ], [ 73.86308, 18.18929 ], [ 73.86392, 18.18767 ], [ 73.86584, 18.18805 ], [ 73.86607, 18.18505 ], [ 73.86819, 18.18287 ], [ 73.86876, 18.18352 ], [ 73.87128, 18.18015 ], [ 73.8714, 18.17386 ], [ 73.8694, 18.17396 ], [ 73.86728, 18.17603 ], [ 73.86101, 18.17476 ], [ 73.85271, 18.17816 ], [ 73.84733, 18.17563 ] ] ] } },
{ "type": "Feature", "properties": { "block_name": "BHOR", "block_lgd": 4513, "area_km2": 13.42 }, "geometry": { "type": "Polygon", "coordinates": [ [ [ 73.90166, 18.32833 ], [ 73.90195, 18.32531 ], [ 73.90985, 18.32266 ], [ 73.91007, 18.32354 ], [ 73.91482, 18.32583 ], [ 73.92018, 18.323 ], [ 73.92244, 18.32412 ], [ 73.92431, 18.32089 ], [ 73.92356, 18.31807 ], [ 73.92422, 18.31667 ], [ 73.92902, 18.3131 ], [ 73.93245, 18.31233 ], [ 73.93295, 18.3091 ], [ 73.92457, 18.30498 ], [ 73.91025, 18.29515 ], [ 73.90657, 18.29011 ], [ 73.90127, 18.29151 ], [ 73.89755, 18.29061 ], [ 73.89446, 18.2911 ], [ 73.89262, 18.29029 ], [ 73.89116, 18.29094 ], [ 73.88853, 18.2905 ], [ 73.88507, 18.29233 ], [ 73.88234, 18.29188 ], [ 73.88143, 18.29698 ], [ 73.88302, 18.30181 ], [ 73.88735, 18.30931 ], [ 73.89134, 18.31419 ], [ 73.89394, 18.32004 ], [ 73.89759, 18.32253 ], [ 73.90166, 18.32833 ] ] ] } },
{ "type": "Feature", "properties": { "block_name": "BHOR", "block_lgd": 4513, "area_km2": 11.74 }, "geometry": { "type": "Polygon", "coordinates": [ [ [ 73.7087, 18.24453 ], [ 73.71118, 18.2399 ], [ 73.69969, 18.23925 ], [ 73.70028, 18.2336 ], [ 73.69816, 18.22887 ], [ 73.69725, 18.22851 ], [ 73.69527, 18.22962 ], [ 73.69515, 18.23209 ], [ 73.69405, 18.23305 ], [ 73.69287, 18.23228 ], [ 73.69188, 18.23308 ], [ 73.69163, 18.2312 ], [ 73.68931, 18.2279 ], [ 73.68771, 18.22825 ], [ 73.68574, 18.23014 ], [ 73.68319, 18.2253 ], [ 73.68077, 18.22724 ], [ 73.67967, 18.23204 ], [ 73.67823, 18.23332 ], [ 73.67761, 18.2309 ], [ 73.67621, 18.22983 ], [ 73.67284, 18.23003 ], [ 73.67356, 18.22652 ], [ 73.6667, 18.22451 ], [ 73.66513, 18.22709 ], [ 73.66246, 18.22757 ], [ 73.66098, 18.23028 ], [ 73.66174, 18.23333 ], [ 73.66041, 18.24396 ], [ 73.67014, 18.24253 ], [ 73.66929, 18.24663 ], [ 73.67133, 18.25002 ], [ 73.67462, 18.24779 ], [ 73.67437, 18.24991 ], [ 73.67202, 18.25395 ], [ 73.67428, 18.25424 ], [ 73.67692, 18.25177 ], [ 73.67729, 18.25278 ], [ 73.67541, 18.25704 ], [ 73.67949, 18.25759 ], [ 73.67971, 18.25957 ], [ 73.68218, 18.26123 ], [ 73.68315, 18.25984 ], [ 73.68422, 18.26005 ], [ 73.68452, 18.25815 ], [ 73.68596, 18.25699 ], [ 73.68871, 18.25908 ], [ 73.69034, 18.25703 ], [ 73.69174, 18.25803 ], [ 73.69697, 18.25741 ], [ 73.69811, 18.25094 ], [ 73.69725, 18.2492 ], [ 73.69906, 18.24801 ], [ 73.69932, 18.2447 ], [ 73.70359, 18.24608 ], [ 73.7087, 18.24453 ] ] ] } },
{ "type": "Feature", "properties": { "block_name": "BHOR", "block_lgd": 4513, "area_km2": 2.38 }, "geometry": { "type": "Polygon", "coordinates": [ [ [ 73.63013, 18.07954 ], [ 73.62102, 18.07799 ], [ 73.61547, 18.08162 ], [ 73.6107, 18.08765 ], [ 73.61102, 18.08883 ], [ 73.6148, 18.08901 ], [ 73.61589, 18.09092 ], [ 73.61951, 18.09154 ], [ 73.62091, 18.09093 ], [ 73.62274, 18.09352 ], [ 73.62494, 18.09271 ], [ 73.62683, 18.09509 ], [ 73.62904, 18.09331 ], [ 73.62833, 18.08638 ], [ 73.63045, 18.08096 ], [ 73.63013, 18.07954 ] ] ] } },
{ "type": "Feature", "properties": { "block_name": "BHOR", "block_lgd": 4513, "area_km2": 9.24 }, "geometry": { "type": "Polygon", "coordinates": [ [ [ 73.8352, 18.15581 ], [ 73.83783, 18.15608 ], [ 73.84127, 18.15322 ], [ 73.84328, 18.1533 ], [ 73.84505, 18.15489 ], [ 73.85002, 18.15578 ], [ 73.85322, 18.16074 ], [ 73.85801, 18.15608 ], [ 73.85476, 18.14552 ], [ 73.85259, 18.14305 ], [ 73.85453, 18.14148 ], [ 73.85289, 18.1412 ], [ 73.85253, 18.1369 ], [ 73.85169, 18.1372 ], [ 73.85031, 18.13247 ], [ 73.84899, 18.13255 ], [ 73.84914, 18.13013 ], [ 73.8434, 18.1281 ], [ 73.84177, 18.12449 ], [ 73.83865, 18.12196 ], [ 73.83709, 18.11926 ], [ 73.83221, 18.11851 ], [ 73.82282, 18.12398 ], [ 73.82158, 18.1278 ], [ 73.82437, 18.12961 ], [ 73.82979, 18.13719 ], [ 73.832, 18.13851 ], [ 73.83225, 18.14136 ], [ 73.82961, 18.14928 ], [ 73.83101, 18.14988 ], [ 73.8308, 18.15181 ], [ 73.83293, 18.15221 ], [ 73.8352, 18.15581 ] ] ] } },
{ "type": "Feature", "properties": { "block_name": "BHOR", "block_lgd": 4513, "area_km2": 1.78 }, "geometry": { "type": "Polygon", "coordinates": [ [ [ 73.77146, 18.16943 ], [ 73.7713, 18.1725 ], [ 73.7763, 18.17391 ], [ 73.77745, 18.1752 ], [ 73.77731, 18.17236 ], [ 73.78073, 18.16718 ], [ 73.78008, 18.16502 ], [ 73.78124, 18.16237 ], [ 73.7812, 18.1588 ], [ 73.78285, 18.15631 ], [ 73.7847, 18.15595 ], [ 73.78427, 18.15547 ], [ 73.7858, 18.15431 ], [ 73.78667, 18.15105 ], [ 73.78752, 18.15072 ], [ 73.78249, 18.14948 ], [ 73.78029, 18.15094 ], [ 73.77861, 18.15026 ], [ 73.77696, 18.15355 ], [ 73.77676, 18.16167 ], [ 73.775, 18.16368 ], [ 73.77431, 18.16631 ], [ 73.77146, 18.16943 ] ] ] } },
{ "type": "Feature", "properties": { "block_name": "BHOR", "block_lgd": 4513, "area_km2": 4.23 }, "geometry": { "type": "Polygon", "coordinates": [ [ [ 73.80256, 18.12259 ], [ 73.81738, 18.12646 ], [ 73.82065, 18.12508 ], [ 73.82142, 18.12187 ], [ 73.8228, 18.12146 ], [ 73.82293, 18.11945 ], [ 73.82062, 18.11765 ], [ 73.82277, 18.11594 ], [ 73.82233, 18.11473 ], [ 73.81995, 18.11415 ], [ 73.82222, 18.11225 ], [ 73.82025, 18.11128 ], [ 73.82138, 18.11065 ], [ 73.82142, 18.1095 ], [ 73.81933, 18.10867 ], [ 73.81583, 18.10444 ], [ 73.81727, 18.10349 ], [ 73.81575, 18.1017 ], [ 73.81285, 18.10183 ], [ 73.80805, 18.1059 ], [ 73.80485, 18.10669 ], [ 73.80279, 18.11095 ], [ 73.8031, 18.11412 ], [ 73.80221, 18.11652 ], [ 73.80359, 18.12095 ], [ 73.80256, 18.12259 ] ] ] } },
{ "type": "Feature", "properties": { "block_name": "PUNE CITY", "block_lgd": 4521, "area_km2": 313.88 }, "geometry": { "type": "Polygon", "coordinates": [ [ [ 73.90582, 18.61664 ], [ 73.91185, 18.61866 ], [ 73.92109, 18.61903 ], [ 73.92261, 18.62083 ], [ 73.92587, 18.62126 ], [ 73.93403, 18.61991 ], [ 73.93889, 18.62065 ], [ 73.94049, 18.61976 ], [ 73.94953, 18.62094 ], [ 73.95887, 18.62013 ], [ 73.96368, 18.62122 ], [ 73.9676, 18.62006 ], [ 73.9647, 18.61723 ], [ 73.96678, 18.60983 ], [ 73.96668, 18.60731 ], [ 73.97042, 18.6034 ], [ 73.97803, 18.60249 ], [ 73.98239, 18.60285 ], [ 73.9888, 18.60609 ], [ 73.99491, 18.60767 ], [ 74.00439, 18.61373 ], [ 74.00881, 18.60815 ], [ 74.0108, 18.6039 ], [ 74.01529, 18.60088 ], [ 74.01635, 18.5958 ], [ 74.01905, 18.59432 ], [ 74.01714, 18.59395 ], [ 74.01748, 18.59117 ], [ 74.01114, 18.5846 ], [ 74.00809, 18.57888 ], [ 74.00497, 18.57676 ], [ 74.00228, 18.56706 ], [ 73.99424, 18.56729 ], [ 73.98966, 18.57089 ], [ 73.98464, 18.57203 ], [ 73.98464, 18.57267 ], [ 73.98151, 18.57272 ], [ 73.98127, 18.57168 ], [ 73.97879, 18.57151 ], [ 73.97738, 18.56439 ], [ 73.97459, 18.55827 ], [ 73.97618, 18.5493 ], [ 73.97302, 18.54089 ], [ 73.96947, 18.54328 ], [ 73.96146, 18.54567 ], [ 73.9593, 18.53867 ], [ 73.95603, 18.53424 ], [ 73.95395, 18.52316 ], [ 73.95088, 18.52362 ], [ 73.94989, 18.51095 ], [ 73.95139, 18.50433 ], [ 73.95876, 18.50415 ], [ 73.9568, 18.49349 ], [ 73.94971, 18.4937 ], [ 73.94739, 18.48701 ], [ 73.9451, 18.48379 ], [ 73.94222, 18.47211 ], [ 73.93989, 18.46833 ], [ 73.9375, 18.46609 ], [ 73.93053, 18.46503 ], [ 73.92451, 18.45774 ], [ 73.92299, 18.46003 ], [ 73.92079, 18.46008 ], [ 73.91837, 18.46274 ], [ 73.90428, 18.46361 ], [ 73.9005, 18.46504 ], [ 73.89971, 18.45996 ], [ 73.89896, 18.45948 ], [ 73.89781, 18.44647 ], [ 73.89789, 18.44464 ], [ 73.90035, 18.44092 ], [ 73.8952, 18.43947 ], [ 73.89361, 18.44353 ], [ 73.89017, 18.44514 ], [ 73.88986, 18.44141 ], [ 73.8841, 18.44004 ], [ 73.88471, 18.44163 ], [ 73.88136, 18.43749 ], [ 73.88109, 18.43273 ], [ 73.87989, 18.42994 ], [ 73.87805, 18.43782 ], [ 73.8765, 18.43939 ], [ 73.87338, 18.43753 ], [ 73.87017, 18.43877 ], [ 73.8675, 18.43389 ], [ 73.8676, 18.43253 ], [ 73.86605, 18.43195 ], [ 73.86531, 18.43179 ], [ 73.86415, 18.43405 ], [ 73.86152, 18.43601 ], [ 73.86128, 18.43469 ], [ 73.85948, 18.43317 ], [ 73.85556, 18.43356 ], [ 73.85413, 18.43496 ], [ 73.85189, 18.44292 ], [ 73.84687, 18.4448 ], [ 73.84307, 18.44437 ], [ 73.84162, 18.44591 ], [ 73.83948, 18.44497 ], [ 73.83468, 18.44548 ], [ 73.8342, 18.45047 ], [ 73.83038, 18.4513 ], [ 73.82844, 18.45451 ], [ 73.82884, 18.45631 ], [ 73.82608, 18.45825 ], [ 73.82603, 18.46145 ], [ 73.81645, 18.45915 ], [ 73.81319, 18.45945 ], [ 73.80185, 18.45707 ], [ 73.80052, 18.46046 ], [ 73.80149, 18.46165 ], [ 73.7997, 18.46342 ], [ 73.80012, 18.46608 ], [ 73.79864, 18.46636 ], [ 73.79625, 18.47187 ], [ 73.79618, 18.47505 ], [ 73.79289, 18.47886 ], [ 73.77778, 18.48058 ], [ 73.7775, 18.48475 ], [ 73.77531, 18.48857 ], [ 73.77413, 18.4888 ], [ 73.77739, 18.49394 ], [ 73.77717, 18.49607 ], [ 73.78167, 18.49998 ], [ 73.78362, 18.50661 ], [ 73.787, 18.51354 ], [ 73.78701, 18.51694 ], [ 73.79283, 18.51644 ], [ 73.79898, 18.52333 ], [ 73.80457, 18.52449 ], [ 73.81241, 18.52434 ], [ 73.81548, 18.52556 ], [ 73.81835, 18.53189 ], [ 73.81172, 18.53635 ], [ 73.80959, 18.54397 ], [ 73.80963, 18.55049 ], [ 73.80084, 18.55228 ], [ 73.78772, 18.55312 ], [ 73.78548, 18.54912 ], [ 73.77734, 18.54911 ], [ 73.77416, 18.54678 ], [ 73.78624, 18.54349 ], [ 73.78521, 18.53946 ], [ 73.78741, 18.53926 ], [ 73.78874, 18.5375 ], [ 73.78799, 18.53639 ], [ 73.78675, 18.53714 ], [ 73.78375, 18.53679 ], [ 73.78199, 18.53384 ], [ 73.77841, 18.53195 ], [ 73.77823, 18.52726 ], [ 73.77166, 18.52886 ], [ 73.76741, 18.52823 ], [ 73.75838, 18.52885 ], [ 73.74988, 18.53125 ], [ 73.75032, 18.53291 ], [ 73.75398, 18.5343 ], [ 73.75838, 18.53753 ], [ 73.75828, 18.53913 ], [ 73.75912, 18.53987 ], [ 73.76558, 18.54259 ], [ 73.76826, 18.54488 ], [ 73.76821, 18.54673 ], [ 73.76558, 18.54907 ], [ 73.76369, 18.55395 ], [ 73.76462, 18.55713 ], [ 73.76507, 18.56938 ], [ 73.76283, 18.57024 ], [ 73.76073, 18.58802 ], [ 73.76221, 18.58856 ], [ 73.7696, 18.58732 ], [ 73.77479, 18.58861 ], [ 73.77763, 18.58778 ], [ 73.78131, 18.57872 ], [ 73.78989, 18.57234 ], [ 73.79007, 18.57012 ], [ 73.7877, 18.56569 ], [ 73.78903, 18.56425 ], [ 73.79375, 18.56443 ], [ 73.797, 18.56753 ], [ 73.80138, 18.56958 ], [ 73.81062, 18.56803 ], [ 73.82217, 18.5696 ], [ 73.82776, 18.56812 ], [ 73.82986, 18.56946 ], [ 73.83197, 18.57361 ], [ 73.83561, 18.57546 ], [ 73.83733, 18.57542 ], [ 73.84346, 18.5726 ], [ 73.84718, 18.57245 ], [ 73.85066, 18.57445 ], [ 73.85424, 18.58151 ], [ 73.86064, 18.58357 ], [ 73.85954, 18.58743 ], [ 73.8626, 18.58772 ], [ 73.86439, 18.59517 ], [ 73.86878, 18.60167 ], [ 73.8849, 18.59907 ], [ 73.89332, 18.62195 ], [ 73.89688, 18.62112 ], [ 73.90582, 18.61664 ] ] ] } },
{ "type": "Feature", "properties": { "block_name": "HAVELI", "block_lgd": 4515, "area_km2": 1.21 }, "geometry": { "type": "Polygon", "coordinates": [ [ [ 73.65034, 18.45079 ], [ 73.6554, 18.45475 ], [ 73.65796, 18.45532 ], [ 73.65987, 18.45452 ], [ 73.65775, 18.44442 ], [ 73.65712, 18.44437 ], [ 73.65895, 18.43955 ], [ 73.65857, 18.43866 ], [ 73.66017, 18.43761 ], [ 73.65919, 18.43533 ], [ 73.6552, 18.43593 ], [ 73.65474, 18.43361 ], [ 73.65477, 18.44264 ], [ 73.65034, 18.45079 ] ] ] } },
{ "type": "Feature", "properties": { "block_name": "HAVELI", "block_lgd": 4515, "area_km2": 7.81 }, "geometry": { "type": "Polygon", "coordinates": [ [ [ 73.77419, 18.48878 ], [ 73.77531, 18.48857 ], [ 73.7775, 18.48475 ], [ 73.77778, 18.48058 ], [ 73.79289, 18.47886 ], [ 73.79594, 18.47556 ], [ 73.79625, 18.47187 ], [ 73.79854, 18.46661 ], [ 73.79626, 18.46389 ], [ 73.7926, 18.46243 ], [ 73.7849, 18.46283 ], [ 73.782, 18.46138 ], [ 73.77605, 18.46052 ], [ 73.77306, 18.45855 ], [ 73.77247, 18.45955 ], [ 73.76725, 18.46115 ], [ 73.76334, 18.47132 ], [ 73.76235, 18.48342 ], [ 73.76597, 18.48291 ], [ 73.77015, 18.48504 ], [ 73.77419, 18.48878 ] ] ] } },
{ "type": "Feature", "properties": { "block_name": "HAVELI", "block_lgd": 4515, "area_km2": 16.19 }, "geometry": { "type": "Polygon", "coordinates": [ [ [ 73.79682, 18.45649 ], [ 73.81319, 18.45945 ], [ 73.81752, 18.45647 ], [ 73.82258, 18.44165 ], [ 73.82628, 18.43429 ], [ 73.82861, 18.42448 ], [ 73.82955, 18.42462 ], [ 73.82997, 18.42605 ], [ 73.83347, 18.42746 ], [ 73.83485, 18.4294 ], [ 73.83609, 18.43707 ], [ 73.83514, 18.44551 ], [ 73.83948, 18.44497 ], [ 73.84162, 18.44591 ], [ 73.84307, 18.44437 ], [ 73.84687, 18.4448 ], [ 73.85189, 18.44292 ], [ 73.85451, 18.43442 ], [ 73.85077, 18.42454 ], [ 73.85005, 18.42379 ], [ 73.8476, 18.4249 ], [ 73.8427, 18.42929 ], [ 73.84084, 18.43307 ], [ 73.83923, 18.43177 ], [ 73.83842, 18.4326 ], [ 73.83709, 18.43143 ], [ 73.83741, 18.42958 ], [ 73.8358, 18.42834 ], [ 73.8358, 18.42646 ], [ 73.83393, 18.42407 ], [ 73.83322, 18.42129 ], [ 73.82852, 18.42055 ], [ 73.82791, 18.41944 ], [ 73.83151, 18.41824 ], [ 73.82505, 18.41791 ], [ 73.82166, 18.41559 ], [ 73.82123, 18.40495 ], [ 73.81613, 18.40905 ], [ 73.81293, 18.40968 ], [ 73.80939, 18.41519 ], [ 73.80933, 18.41803 ], [ 73.80624, 18.42057 ], [ 73.80164, 18.42701 ], [ 73.80139, 18.43399 ], [ 73.79813, 18.44544 ], [ 73.7971, 18.44561 ], [ 73.79597, 18.45125 ], [ 73.79484, 18.45153 ], [ 73.79491, 18.45293 ], [ 73.79717, 18.45466 ], [ 73.79682, 18.45649 ] ] ] } },
{ "type": "Feature", "properties": { "block_name": "HAVELI", "block_lgd": 4515, "area_km2": 6.9 }, "geometry": { "type": "Polygon", "coordinates": [ [ [ 73.87966, 18.42838 ], [ 73.88136, 18.43749 ], [ 73.88471, 18.44163 ], [ 73.8841, 18.44004 ], [ 73.88986, 18.44141 ], [ 73.89017, 18.44514 ], [ 73.89361, 18.44353 ], [ 73.8952, 18.43947 ], [ 73.90055, 18.44097 ], [ 73.90211, 18.4358 ], [ 73.90218, 18.41836 ], [ 73.90398, 18.41438 ], [ 73.90484, 18.41432 ], [ 73.90258, 18.40952 ], [ 73.89199, 18.41021 ], [ 73.88271, 18.42209 ], [ 73.87966, 18.42838 ] ] ] } },
{ "type": "Feature", "properties": { "block_name": "HAVELI", "block_lgd": 4515, "area_km2": 4.85 }, "geometry": { "type": "Polygon", "coordinates": [ [ [ 73.89971, 18.46004 ], [ 73.9005, 18.46504 ], [ 73.90428, 18.46361 ], [ 73.91837, 18.46274 ], [ 73.92079, 18.46008 ], [ 73.92299, 18.46003 ], [ 73.92451, 18.45774 ], [ 73.92539, 18.45814 ], [ 73.92519, 18.44249 ], [ 73.918, 18.43738 ], [ 73.91766, 18.43505 ], [ 73.91429, 18.43359 ], [ 73.91234, 18.4358 ], [ 73.90965, 18.43533 ], [ 73.90905, 18.43632 ], [ 73.91087, 18.4458 ], [ 73.91045, 18.44926 ], [ 73.91163, 18.45438 ], [ 73.91094, 18.45628 ], [ 73.90424, 18.45849 ], [ 73.90414, 18.45928 ], [ 73.90169, 18.46046 ], [ 73.89971, 18.46004 ] ] ] } },
{ "type": "Feature", "properties": { "block_name": "HAVELI", "block_lgd": 4515, "area_km2": 28.35 }, "geometry": { "type": "Polygon", "coordinates": [ [ [ 73.93818, 18.46686 ], [ 73.94222, 18.47211 ], [ 73.9451, 18.48379 ], [ 73.94739, 18.48701 ], [ 73.94971, 18.4937 ], [ 73.96454, 18.49288 ], [ 73.9657, 18.49099 ], [ 73.96317, 18.48883 ], [ 73.96223, 18.48575 ], [ 73.96546, 18.48201 ], [ 73.96722, 18.48136 ], [ 73.97102, 18.48238 ], [ 73.97373, 18.48095 ], [ 73.976, 18.48161 ], [ 73.97888, 18.47966 ], [ 73.98336, 18.48588 ], [ 73.98505, 18.48525 ], [ 73.98571, 18.4864 ], [ 73.98741, 18.48667 ], [ 73.98819, 18.48872 ], [ 73.98972, 18.48965 ], [ 73.98924, 18.49206 ], [ 73.9983, 18.49139 ], [ 74.00634, 18.48808 ], [ 74.00253, 18.47348 ], [ 73.99626, 18.45736 ], [ 73.97071, 18.45836 ], [ 73.96952, 18.45678 ], [ 73.97046, 18.44945 ], [ 73.96839, 18.44618 ], [ 73.9678, 18.44301 ], [ 73.96436, 18.44151 ], [ 73.96444, 18.43719 ], [ 73.96201, 18.43493 ], [ 73.9529, 18.43322 ], [ 73.95045, 18.43432 ], [ 73.9478, 18.43601 ], [ 73.94711, 18.43928 ], [ 73.94507, 18.44132 ], [ 73.94484, 18.44644 ], [ 73.937, 18.44676 ], [ 73.93491, 18.45634 ], [ 73.93577, 18.4567 ], [ 73.93571, 18.45841 ], [ 73.9389, 18.4583 ], [ 73.93818, 18.46686 ] ] ] } },
{ "type": "Feature", "properties": { "block_name": "HAVELI", "block_lgd": 4515, "area_km2": 213.15 }, "geometry": { "type": "Polygon", "coordinates": [ [ [ 73.88421, 18.67806 ], [ 73.89572, 18.67713 ], [ 73.90156, 18.66445 ], [ 73.90864, 18.65808 ], [ 73.91269, 18.65793 ], [ 73.91737, 18.65558 ], [ 73.91901, 18.653 ], [ 73.92144, 18.65156 ], [ 73.92542, 18.65168 ], [ 73.92681, 18.65305 ], [ 73.93074, 18.65163 ], [ 73.93159, 18.64949 ], [ 73.93072, 18.64762 ], [ 73.93264, 18.63898 ], [ 73.93284, 18.634 ], [ 73.93184, 18.62548 ], [ 73.92899, 18.62089 ], [ 73.92313, 18.62093 ], [ 73.92109, 18.61903 ], [ 73.91185, 18.61866 ], [ 73.90582, 18.61664 ], [ 73.89688, 18.62112 ], [ 73.89332, 18.62195 ], [ 73.8849, 18.59907 ], [ 73.86878, 18.60167 ], [ 73.86439, 18.59517 ], [ 73.8626, 18.58772 ], [ 73.85954, 18.58743 ], [ 73.86064, 18.58357 ], [ 73.85424, 18.58151 ], [ 73.85066, 18.57445 ], [ 73.84718, 18.57245 ], [ 73.84346, 18.5726 ], [ 73.83733, 18.57542 ], [ 73.83561, 18.57546 ], [ 73.83197, 18.57361 ], [ 73.82986, 18.56946 ], [ 73.82776, 18.56812 ], [ 73.82217, 18.5696 ], [ 73.81062, 18.56803 ], [ 73.80101, 18.56952 ], [ 73.797, 18.56753 ], [ 73.79287, 18.56407 ], [ 73.78903, 18.56425 ], [ 73.7877, 18.56569 ], [ 73.79007, 18.57012 ], [ 73.78989, 18.57234 ], [ 73.78131, 18.57872 ], [ 73.77763, 18.58778 ], [ 73.78071, 18.59382 ], [ 73.78045, 18.5987 ], [ 73.777, 18.60361 ], [ 73.784, 18.61169 ], [ 73.78566, 18.61683 ], [ 73.78389, 18.61635 ], [ 73.78231, 18.61736 ], [ 73.77809, 18.62431 ], [ 73.77793, 18.62795 ], [ 73.77447, 18.62765 ], [ 73.7684, 18.62446 ], [ 73.76083, 18.62751 ], [ 73.75363, 18.63191 ], [ 73.75331, 18.64167 ], [ 73.75128, 18.64194 ], [ 73.74756, 18.64046 ], [ 73.74319, 18.64115 ], [ 73.73807, 18.64541 ], [ 73.73447, 18.64191 ], [ 73.729, 18.64617 ], [ 73.72354, 18.64746 ], [ 73.72022, 18.65321 ], [ 73.71386, 18.65576 ], [ 73.71251, 18.65892 ], [ 73.71027, 18.66083 ], [ 73.7119, 18.68329 ], [ 73.71182, 18.68514 ], [ 73.70997, 18.6881 ], [ 73.71696, 18.68654 ], [ 73.72032, 18.70151 ], [ 73.72048, 18.70543 ], [ 73.7197, 18.70587 ], [ 73.72995, 18.7072 ], [ 73.73838, 18.70185 ], [ 73.74301, 18.70194 ], [ 73.74432, 18.70331 ], [ 73.74428, 18.7082 ], [ 73.74534, 18.71158 ], [ 73.74862, 18.71529 ], [ 73.75083, 18.72015 ], [ 73.75465, 18.72139 ], [ 73.75938, 18.71795 ], [ 73.76197, 18.71838 ], [ 73.76295, 18.71489 ], [ 73.7642, 18.71483 ], [ 73.76439, 18.714 ], [ 73.76224, 18.7129 ], [ 73.76397, 18.71279 ], [ 73.76338, 18.71025 ], [ 73.76207, 18.71043 ], [ 73.76252, 18.70812 ], [ 73.76095, 18.69654 ], [ 73.76971, 18.69387 ], [ 73.77026, 18.69706 ], [ 73.77183, 18.69681 ], [ 73.77225, 18.70272 ], [ 73.76948, 18.70304 ], [ 73.76856, 18.70958 ], [ 73.76707, 18.71293 ], [ 73.7741, 18.71276 ], [ 73.77323, 18.71483 ], [ 73.77724, 18.71816 ], [ 73.77928, 18.72489 ], [ 73.78524, 18.72657 ], [ 73.78782, 18.72164 ], [ 73.78815, 18.71633 ], [ 73.79926, 18.70434 ], [ 73.80318, 18.70244 ], [ 73.80899, 18.70462 ], [ 73.81269, 18.7033 ], [ 73.81455, 18.69699 ], [ 73.81459, 18.68947 ], [ 73.8166, 18.68688 ], [ 73.81989, 18.68669 ], [ 73.83101, 18.69049 ], [ 73.8416, 18.68755 ], [ 73.84994, 18.68899 ], [ 73.85243, 18.68787 ], [ 73.85873, 18.68111 ], [ 73.86109, 18.6803 ], [ 73.86691, 18.68646 ], [ 73.87195, 18.68716 ], [ 73.87844, 18.6846 ], [ 73.88421, 18.67806 ] ], [ [ 73.8204, 18.605 ], [ 73.81064, 18.60556 ], [ 73.80951, 18.60387 ], [ 73.80776, 18.60327 ], [ 73.79741, 18.60356 ], [ 73.7852, 18.59231 ], [ 73.78905, 18.58816 ], [ 73.79288, 18.58589 ], [ 73.80111, 18.58405 ], [ 73.80477, 18.5863 ], [ 73.8079, 18.58422 ], [ 73.82046, 18.58095 ], [ 73.82132, 18.57996 ], [ 73.82519, 18.58169 ], [ 73.82929, 18.58829 ], [ 73.82549, 18.59382 ], [ 73.81908, 18.59506 ], [ 73.81848, 18.59778 ], [ 73.82159, 18.60312 ], [ 73.8204, 18.605 ] ] ] } },
{ "type": "Feature", "properties": { "block_name": "HAVELI", "block_lgd": 4515, "area_km2": 7.12 }, "geometry": { "type": "Polygon", "coordinates": [ [ [ 73.71423, 18.46543 ], [ 73.71531, 18.46649 ], [ 73.72157, 18.4671 ], [ 73.72317, 18.47005 ], [ 73.72553, 18.47195 ], [ 73.72914, 18.47179 ], [ 73.73173, 18.47302 ], [ 73.73302, 18.47124 ], [ 73.73492, 18.46457 ], [ 73.74045, 18.46176 ], [ 73.74314, 18.45645 ], [ 73.73548, 18.44528 ], [ 73.72773, 18.4457 ], [ 73.72123, 18.44426 ], [ 73.71232, 18.44566 ], [ 73.71272, 18.45152 ], [ 73.71457, 18.4545 ], [ 73.7138, 18.45884 ], [ 73.71466, 18.46032 ], [ 73.71367, 18.46268 ], [ 73.71423, 18.46543 ] ] ] } },
{ "type": "Feature", "properties": { "block_name": "HAVELI", "block_lgd": 4515, "area_km2": 9.2 }, "geometry": { "type": "Polygon", "coordinates": [ [ [ 73.84217, 18.35642 ], [ 73.84578, 18.3608 ], [ 73.85003, 18.35816 ], [ 73.86591, 18.354 ], [ 73.86122, 18.35128 ], [ 73.86012, 18.35147 ], [ 73.85817, 18.34721 ], [ 73.85638, 18.34592 ], [ 73.85525, 18.34664 ], [ 73.85466, 18.34541 ], [ 73.85521, 18.34359 ], [ 73.85386, 18.34439 ], [ 73.85291, 18.34312 ], [ 73.85522, 18.34144 ], [ 73.85901, 18.34151 ], [ 73.86323, 18.33626 ], [ 73.85476, 18.32775 ], [ 73.85026, 18.32388 ], [ 73.84834, 18.32329 ], [ 73.849, 18.32065 ], [ 73.8482, 18.31948 ], [ 73.8462, 18.31898 ], [ 73.84376, 18.32205 ], [ 73.84339, 18.32387 ], [ 73.84156, 18.32478 ], [ 73.84059, 18.32803 ], [ 73.84125, 18.32883 ], [ 73.83931, 18.33119 ], [ 73.83981, 18.33188 ], [ 73.83896, 18.33352 ], [ 73.83293, 18.338 ], [ 73.83165, 18.33765 ], [ 73.8321, 18.34298 ], [ 73.83125, 18.34361 ], [ 73.82965, 18.34997 ], [ 73.8373, 18.35323 ], [ 73.84217, 18.35642 ] ] ] } },
{ "type": "Feature", "properties": { "block_name": "HAVELI", "block_lgd": 4515, "area_km2": 1.58 }, "geometry": { "type": "Polygon", "coordinates": [ [ [ 73.79723, 18.34503 ], [ 73.79396, 18.34931 ], [ 73.79521, 18.35091 ], [ 73.79468, 18.35207 ], [ 73.79745, 18.35243 ], [ 73.79741, 18.35356 ], [ 73.79981, 18.35592 ], [ 73.79911, 18.35754 ], [ 73.80111, 18.35818 ], [ 73.80564, 18.35062 ], [ 73.81163, 18.34979 ], [ 73.81177, 18.34879 ], [ 73.81055, 18.34817 ], [ 73.81252, 18.3441 ], [ 73.81147, 18.3449 ], [ 73.80886, 18.34379 ], [ 73.80945, 18.34528 ], [ 73.80765, 18.34471 ], [ 73.80662, 18.34568 ], [ 73.80525, 18.34373 ], [ 73.80351, 18.3449 ], [ 73.80088, 18.34349 ], [ 73.80097, 18.34527 ], [ 73.79947, 18.34448 ], [ 73.79723, 18.34503 ] ] ] } },
{ "type": "Feature", "properties": { "block_name": "HAVELI", "block_lgd": 4515, "area_km2": 9.92 }, "geometry": { "type": "Polygon", "coordinates": [ [ [ 74.07377, 18.41916 ], [ 74.08864, 18.42504 ], [ 74.0886, 18.41989 ], [ 74.08713, 18.41782 ], [ 74.08535, 18.41853 ], [ 74.08241, 18.41822 ], [ 74.07198, 18.41489 ], [ 74.07078, 18.41424 ], [ 74.06908, 18.41087 ], [ 74.06192, 18.41146 ], [ 74.05857, 18.41344 ], [ 74.05111, 18.41215 ], [ 74.04871, 18.41255 ], [ 74.03837, 18.41755 ], [ 74.03699, 18.42372 ], [ 74.04172, 18.42853 ], [ 74.04531, 18.43061 ], [ 74.047, 18.43312 ], [ 74.04652, 18.43906 ], [ 74.04963, 18.44512 ], [ 74.04916, 18.44103 ], [ 74.05442, 18.44073 ], [ 74.0634, 18.44331 ], [ 74.06319, 18.44113 ], [ 74.06701, 18.44035 ], [ 74.06873, 18.44143 ], [ 74.06776, 18.43916 ], [ 74.06984, 18.43575 ], [ 74.0701, 18.42834 ], [ 74.07338, 18.42616 ], [ 74.07218, 18.4252 ], [ 74.07038, 18.4261 ], [ 74.06806, 18.42496 ], [ 74.06446, 18.4249 ], [ 74.06459, 18.42154 ], [ 74.0632, 18.41625 ], [ 74.06625, 18.41875 ], [ 74.07305, 18.42121 ], [ 74.07377, 18.41916 ] ] ] } },
{ "type": "Feature", "properties": { "block_name": "HAVELI", "block_lgd": 4515, "area_km2": 2.49 }, "geometry": { "type": "Polygon", "coordinates": [ [ [ 74.14169, 18.46068 ], [ 74.14286, 18.44866 ], [ 74.14162, 18.44833 ], [ 74.12873, 18.4476 ], [ 74.12765, 18.44872 ], [ 74.12581, 18.4483 ], [ 74.12493, 18.451 ], [ 74.12824, 18.45277 ], [ 74.12768, 18.45328 ], [ 74.12477, 18.4523 ], [ 74.12398, 18.46071 ], [ 74.13915, 18.45985 ], [ 74.13942, 18.46113 ], [ 74.14169, 18.46068 ] ] ] } },
{ "type": "Feature", "properties": { "block_name": "PURANDAR", "block_lgd": 4522, "area_km2": 23.33 }, "geometry": { "type": "Polygon", "coordinates": [ [ [ 74.20041, 18.2308 ], [ 74.20232, 18.22808 ], [ 74.20096, 18.22371 ], [ 74.20412, 18.22223 ], [ 74.20454, 18.2188 ], [ 74.20283, 18.21349 ], [ 74.20318, 18.2119 ], [ 74.20138, 18.20377 ], [ 74.19903, 18.20225 ], [ 74.19699, 18.20486 ], [ 74.19637, 18.20245 ], [ 74.19455, 18.20319 ], [ 74.19401, 18.2081 ], [ 74.19236, 18.20862 ], [ 74.19238, 18.20754 ], [ 74.18933, 18.20726 ], [ 74.18868, 18.20827 ], [ 74.189, 18.20647 ], [ 74.1915, 18.20692 ], [ 74.18972, 18.20305 ], [ 74.18855, 18.20263 ], [ 74.18774, 18.20476 ], [ 74.18677, 18.20421 ], [ 74.18633, 18.20233 ], [ 74.18569, 18.2043 ], [ 74.18537, 18.20234 ], [ 74.18436, 18.20216 ], [ 74.18482, 18.20123 ], [ 74.18394, 18.20132 ], [ 74.18338, 18.19991 ], [ 74.18096, 18.20019 ], [ 74.17895, 18.19878 ], [ 74.17878, 18.20075 ], [ 74.17788, 18.20089 ], [ 74.17746, 18.19836 ], [ 74.17564, 18.19863 ], [ 74.17672, 18.19672 ], [ 74.17469, 18.19589 ], [ 74.17406, 18.19124 ], [ 74.17296, 18.1918 ], [ 74.17242, 18.19053 ], [ 74.17113, 18.19037 ], [ 74.17249, 18.18824 ], [ 74.17691, 18.18607 ], [ 74.17793, 18.18468 ], [ 74.18341, 18.18273 ], [ 74.18367, 18.18434 ], [ 74.18584, 18.18384 ], [ 74.18635, 18.18665 ], [ 74.18772, 18.18609 ], [ 74.18871, 18.18751 ], [ 74.18577, 18.18878 ], [ 74.18544, 18.18977 ], [ 74.18829, 18.18932 ], [ 74.18901, 18.1904 ], [ 74.19138, 18.18849 ], [ 74.19307, 18.18858 ], [ 74.19511, 18.18957 ], [ 74.19562, 18.1918 ], [ 74.19626, 18.18852 ], [ 74.19528, 18.18744 ], [ 74.19596, 18.1876 ], [ 74.19689, 18.18606 ], [ 74.19662, 18.18155 ], [ 74.19779, 18.18034 ], [ 74.19605, 18.17464 ], [ 74.19374, 18.17339 ], [ 74.19459, 18.16959 ], [ 74.1904, 18.16468 ], [ 74.18889, 18.16407 ], [ 74.18765, 18.16122 ], [ 74.18591, 18.16016 ], [ 74.18364, 18.16019 ], [ 74.18334, 18.15882 ], [ 74.17715, 18.16007 ], [ 74.17165, 18.15876 ], [ 74.16859, 18.16763 ], [ 74.1681, 18.167 ], [ 74.16845, 18.16795 ], [ 74.16686, 18.16879 ], [ 74.16673, 18.1695 ], [ 74.1675, 18.16955 ], [ 74.16506, 18.17509 ], [ 74.16936, 18.17826 ], [ 74.17037, 18.18233 ], [ 74.16802, 18.18433 ], [ 74.16563, 18.1849 ], [ 74.1659, 18.18613 ], [ 74.16809, 18.18716 ], [ 74.16525, 18.18753 ], [ 74.1673, 18.18863 ], [ 74.16699, 18.1899 ], [ 74.16182, 18.18912 ], [ 74.159, 18.18672 ], [ 74.15791, 18.18699 ], [ 74.15636, 18.18575 ], [ 74.15462, 18.18844 ], [ 74.15584, 18.19154 ], [ 74.15783, 18.1938 ], [ 74.15899, 18.19382 ], [ 74.1594, 18.19609 ], [ 74.16012, 18.19693 ], [ 74.16126, 18.19612 ], [ 74.16189, 18.19848 ], [ 74.16289, 18.19871 ], [ 74.1631, 18.19967 ], [ 74.16052, 18.2008 ], [ 74.16038, 18.20189 ], [ 74.16285, 18.20213 ], [ 74.16761, 18.21176 ], [ 74.16826, 18.21511 ], [ 74.17104, 18.21748 ], [ 74.17035, 18.22122 ], [ 74.17169, 18.23108 ], [ 74.1702, 18.23284 ], [ 74.1704, 18.23517 ], [ 74.17181, 18.23382 ], [ 74.1816, 18.23812 ], [ 74.18475, 18.23479 ], [ 74.18822, 18.23554 ], [ 74.19074, 18.23496 ], [ 74.19333, 18.23238 ], [ 74.20041, 18.2308 ] ] ] } },
{ "type": "Feature", "properties": { "block_name": "PURANDAR", "block_lgd": 4522, "area_km2": 2.5 }, "geometry": { "type": "Polygon", "coordinates": [ [ [ 74.09232, 18.36369 ], [ 74.09644, 18.36401 ], [ 74.0938, 18.35601 ], [ 74.09275, 18.34005 ], [ 74.09165, 18.33542 ], [ 74.08867, 18.32896 ], [ 74.086, 18.33138 ], [ 74.08239, 18.333 ], [ 74.08101, 18.33272 ], [ 74.08107, 18.33564 ], [ 74.08463, 18.34301 ], [ 74.08874, 18.34746 ], [ 74.08895, 18.35436 ], [ 74.09116, 18.36051 ], [ 74.09103, 18.36279 ], [ 74.09232, 18.36369 ] ] ] } },
{ "type": "Feature", "properties": { "block_name": "PURANDAR", "block_lgd": 4522, "area_km2": 47.72 }, "geometry": { "type": "Polygon", "coordinates": [ [ [ 74.09309, 18.25986 ], [ 74.09698, 18.2589 ], [ 74.09813, 18.25566 ], [ 74.09855, 18.25197 ], [ 74.09626, 18.24807 ], [ 74.10055, 18.24078 ], [ 74.10016, 18.23942 ], [ 74.10222, 18.23785 ], [ 74.10125, 18.23468 ], [ 74.10509, 18.23116 ], [ 74.10694, 18.23091 ], [ 74.10871, 18.22769 ], [ 74.11165, 18.22588 ], [ 74.11339, 18.22213 ], [ 74.11256, 18.21975 ], [ 74.11454, 18.21729 ], [ 74.1139, 18.21479 ], [ 74.11707, 18.20976 ], [ 74.12193, 18.21112 ], [ 74.12737, 18.21138 ], [ 74.13214, 18.21481 ], [ 74.13355, 18.21728 ], [ 74.13823, 18.21873 ], [ 74.14168, 18.22109 ], [ 74.14544, 18.2185 ], [ 74.14731, 18.21489 ], [ 74.1456, 18.20989 ], [ 74.14405, 18.2098 ], [ 74.14317, 18.20817 ], [ 74.14145, 18.20778 ], [ 74.13799, 18.201 ], [ 74.1395, 18.19718 ], [ 74.13654, 18.19697 ], [ 74.13517, 18.19469 ], [ 74.13349, 18.19441 ], [ 74.13364, 18.1925 ], [ 74.13867, 18.19281 ], [ 74.13893, 18.19141 ], [ 74.13726, 18.19092 ], [ 74.13629, 18.18882 ], [ 74.13646, 18.18687 ], [ 74.1311, 18.1926 ], [ 74.1287, 18.19672 ], [ 74.12263, 18.1989 ], [ 74.12138, 18.20171 ], [ 74.11841, 18.20243 ], [ 74.10987, 18.19677 ], [ 74.10861, 18.19446 ], [ 74.10745, 18.19408 ], [ 74.10698, 18.19127 ], [ 74.1046, 18.18763 ], [ 74.10683, 18.17883 ], [ 74.1088, 18.1754 ], [ 74.10822, 18.16978 ], [ 74.1112, 18.16178 ], [ 74.11078, 18.16053 ], [ 74.11154, 18.15925 ], [ 74.11277, 18.15901 ], [ 74.11425, 18.15607 ], [ 74.12359, 18.15601 ], [ 74.12492, 18.15203 ], [ 74.12445, 18.14693 ], [ 74.12692, 18.14239 ], [ 74.11786, 18.14207 ], [ 74.11854, 18.14096 ], [ 74.11778, 18.13659 ], [ 74.11677, 18.13594 ], [ 74.11646, 18.14162 ], [ 74.11268, 18.14248 ], [ 74.11347, 18.14442 ], [ 74.11203, 18.14482 ], [ 74.10735, 18.15019 ], [ 74.10165, 18.14998 ], [ 74.0954, 18.15218 ], [ 74.08971, 18.15071 ], [ 74.08735, 18.15245 ], [ 74.08431, 18.15859 ], [ 74.08486, 18.16066 ], [ 74.08258, 18.16781 ], [ 74.08285, 18.17468 ], [ 74.07388, 18.17492 ], [ 74.07319, 18.17719 ], [ 74.07206, 18.17734 ], [ 74.07184, 18.17823 ], [ 74.07198, 18.18093 ], [ 74.07321, 18.18213 ], [ 74.0716, 18.186 ], [ 74.07131, 18.18953 ], [ 74.06801, 18.19415 ], [ 74.06825, 18.19623 ], [ 74.07075, 18.19897 ], [ 74.07009, 18.2027 ], [ 74.07125, 18.20618 ], [ 74.06711, 18.21103 ], [ 74.06998, 18.21559 ], [ 74.07824, 18.21664 ], [ 74.07887, 18.22401 ], [ 74.07782, 18.23059 ], [ 74.07513, 18.2345 ], [ 74.07278, 18.24295 ], [ 74.07084, 18.24613 ], [ 74.07198, 18.24879 ], [ 74.07375, 18.25002 ], [ 74.08365, 18.25242 ], [ 74.08612, 18.25541 ], [ 74.08552, 18.25605 ], [ 74.09309, 18.25986 ] ] ] } },
{ "type": "Feature", "properties": { "block_name": "PURANDAR", "block_lgd": 4522, "area_km2": 22.68 }, "geometry": { "type": "Polygon", "coordinates": [ [ [ 73.99342, 18.34616 ], [ 73.99904, 18.34574 ], [ 74.00386, 18.34414 ], [ 74.00398, 18.34518 ], [ 74.00572, 18.34537 ], [ 74.01199, 18.36418 ], [ 74.01496, 18.36246 ], [ 74.016, 18.36453 ], [ 74.02092, 18.36581 ], [ 74.023, 18.36808 ], [ 74.02584, 18.36937 ], [ 74.02723, 18.36983 ], [ 74.02853, 18.36817 ], [ 74.02899, 18.36914 ], [ 74.0303, 18.36898 ], [ 74.03069, 18.36703 ], [ 74.03687, 18.36218 ], [ 74.03834, 18.36207 ], [ 74.0387, 18.36016 ], [ 74.04195, 18.35723 ], [ 74.0408, 18.35573 ], [ 74.04144, 18.35477 ], [ 74.041, 18.35153 ], [ 74.04316, 18.35034 ], [ 74.04251, 18.34743 ], [ 74.04478, 18.3457 ], [ 74.04861, 18.34748 ], [ 74.05503, 18.35264 ], [ 74.05652, 18.34189 ], [ 74.0554, 18.34056 ], [ 74.0537, 18.3405 ], [ 74.05082, 18.31938 ], [ 74.0323, 18.32112 ], [ 74.02863, 18.31942 ], [ 74.02989, 18.32391 ], [ 74.02687, 18.32456 ], [ 74.02714, 18.32565 ], [ 74.02423, 18.32644 ], [ 74.01654, 18.3248 ], [ 74.0085, 18.32486 ], [ 73.99949, 18.32306 ], [ 73.99999, 18.32889 ], [ 73.9992, 18.33267 ], [ 73.9969, 18.33297 ], [ 73.99726, 18.34087 ], [ 73.99338, 18.34231 ], [ 73.99342, 18.34616 ] ] ] } },
{ "type": "Feature", "properties": { "block_name": "PURANDAR", "block_lgd": 4522, "area_km2": 7.54 }, "geometry": { "type": "Polygon", "coordinates": [ [ [ 74.01982, 18.23241 ], [ 74.01733, 18.2311 ], [ 74.02028, 18.23549 ], [ 74.02431, 18.23776 ], [ 74.03009, 18.23943 ], [ 74.03274, 18.24279 ], [ 74.03222, 18.2436 ], [ 74.03683, 18.24396 ], [ 74.04145, 18.24246 ], [ 74.04511, 18.24312 ], [ 74.04644, 18.24024 ], [ 74.04952, 18.2381 ], [ 74.04884, 18.23457 ], [ 74.05369, 18.23098 ], [ 74.05305, 18.22162 ], [ 74.05024, 18.21757 ], [ 74.04999, 18.21583 ], [ 74.0444, 18.2112 ], [ 74.04281, 18.20868 ], [ 74.0374, 18.21078 ], [ 74.03505, 18.21363 ], [ 74.033, 18.21433 ], [ 74.03486, 18.22013 ], [ 74.03424, 18.2204 ], [ 74.03491, 18.22316 ], [ 74.0285, 18.23229 ], [ 74.0261, 18.23338 ], [ 74.02505, 18.23265 ], [ 74.0236, 18.23375 ], [ 74.0213, 18.22954 ], [ 74.01973, 18.23052 ], [ 74.01982, 18.23241 ] ] ] } },
{ "type": "Feature", "properties": { "block_name": "PURANDAR", "block_lgd": 4522, "area_km2": 0.99 }, "geometry": { "type": "Polygon", "coordinates": [ [ [ 74.07082, 18.14386 ], [ 74.0764, 18.14635 ], [ 74.07887, 18.1447 ], [ 74.07982, 18.14556 ], [ 74.08029, 18.14327 ], [ 74.08916, 18.14211 ], [ 74.09086, 18.14036 ], [ 74.09082, 18.13856 ], [ 74.08901, 18.13692 ], [ 74.08268, 18.13638 ], [ 74.08021, 18.14045 ], [ 74.07625, 18.14164 ], [ 74.07579, 18.14285 ], [ 74.07222, 18.14265 ], [ 74.07082, 18.14386 ] ] ] } },
{ "type": "Feature", "properties": { "block_name": "PURANDAR", "block_lgd": 4522, "area_km2": 24.65 }, "geometry": { "type": "Polygon", "coordinates": [ [ [ 74.136, 18.28191 ], [ 74.13914, 18.29163 ], [ 74.144, 18.29686 ], [ 74.1455, 18.29499 ], [ 74.14685, 18.29645 ], [ 74.1849, 18.28702 ], [ 74.18568, 18.28151 ], [ 74.19931, 18.27643 ], [ 74.19745, 18.27652 ], [ 74.18364, 18.25009 ], [ 74.17986, 18.24503 ], [ 74.17756, 18.24401 ], [ 74.17494, 18.2503 ], [ 74.17086, 18.25453 ], [ 74.16731, 18.25121 ], [ 74.1603, 18.2524 ], [ 74.15798, 18.25384 ], [ 74.1499, 18.25229 ], [ 74.1484, 18.25491 ], [ 74.14246, 18.25594 ], [ 74.14012, 18.25775 ], [ 74.13799, 18.26236 ], [ 74.13448, 18.2667 ], [ 74.13547, 18.26878 ], [ 74.136, 18.28191 ] ] ] } },
{ "type": "Feature", "properties": { "block_name": "BARAMATI", "block_lgd": 4512, "area_km2": 15.95 }, "geometry": { "type": "Polygon", "coordinates": [ [ [ 74.4003, 18.26443 ], [ 74.40365, 18.26354 ], [ 74.40645, 18.26096 ], [ 74.41251, 18.25884 ], [ 74.41629, 18.25616 ], [ 74.41819, 18.25614 ], [ 74.42106, 18.25755 ], [ 74.42968, 18.25769 ], [ 74.43539, 18.25338 ], [ 74.43848, 18.24895 ], [ 74.44183, 18.24723 ], [ 74.44062, 18.2421 ], [ 74.43495, 18.2281 ], [ 74.43322, 18.22859 ], [ 74.43277, 18.22719 ], [ 74.43175, 18.2277 ], [ 74.43199, 18.2288 ], [ 74.42523, 18.22797 ], [ 74.42414, 18.22932 ], [ 74.41642, 18.23135 ], [ 74.4105, 18.23079 ], [ 74.40628, 18.23252 ], [ 74.3989, 18.233 ], [ 74.39741, 18.23183 ], [ 74.3959, 18.23247 ], [ 74.39707, 18.23571 ], [ 74.39901, 18.23539 ], [ 74.39961, 18.23731 ], [ 74.40059, 18.23721 ], [ 74.40082, 18.23797 ], [ 74.39598, 18.23923 ], [ 74.39877, 18.2418 ], [ 74.39552, 18.24324 ], [ 74.38789, 18.24461 ], [ 74.38813, 18.2658 ], [ 74.39103, 18.26813 ], [ 74.39317, 18.26732 ], [ 74.39603, 18.26353 ], [ 74.4003, 18.26443 ] ] ] } },
{ "type": "Feature", "properties": { "block_name": "BARAMATI", "block_lgd": 4512, "area_km2": 58.79 }, "geometry": { "type": "Polygon", "coordinates": [ [ [ 74.53222, 18.15524 ], [ 74.5329, 18.1583 ], [ 74.55002, 18.16345 ], [ 74.55267, 18.16619 ], [ 74.5532, 18.16567 ], [ 74.55801, 18.16874 ], [ 74.56628, 18.17117 ], [ 74.56428, 18.18492 ], [ 74.56638, 18.19726 ], [ 74.56628, 18.20165 ], [ 74.57743, 18.20714 ], [ 74.58135, 18.21212 ], [ 74.58767, 18.21733 ], [ 74.5969, 18.22177 ], [ 74.6042, 18.21884 ], [ 74.6091, 18.21468 ], [ 74.60737, 18.20653 ], [ 74.60709, 18.19514 ], [ 74.60862, 18.19473 ], [ 74.60888, 18.19623 ], [ 74.61094, 18.19562 ], [ 74.61066, 18.19444 ], [ 74.61992, 18.18996 ], [ 74.62072, 18.19234 ], [ 74.62756, 18.19181 ], [ 74.62717, 18.1876 ], [ 74.62201, 18.17698 ], [ 74.62319, 18.17 ], [ 74.62708, 18.16189 ], [ 74.62794, 18.14982 ], [ 74.62253, 18.14866 ], [ 74.61538, 18.14426 ], [ 74.60149, 18.14626 ], [ 74.58982, 18.14673 ], [ 74.58972, 18.14472 ], [ 74.58646, 18.14089 ], [ 74.58508, 18.13972 ], [ 74.58214, 18.13913 ], [ 74.58023, 18.13507 ], [ 74.57798, 18.13367 ], [ 74.57413, 18.13622 ], [ 74.56795, 18.13328 ], [ 74.55811, 18.13129 ], [ 74.54552, 18.12572 ], [ 74.54086, 18.12531 ], [ 74.53868, 18.12579 ], [ 74.53573, 18.13419 ], [ 74.53367, 18.14263 ], [ 74.53222, 18.15524 ] ] ] } },
{ "type": "Feature", "properties": { "block_name": "DAUND", "block_lgd": 4514, "area_km2": 11.42 }, "geometry": { "type": "Polygon", "coordinates": [ [ [ 74.27615, 18.51363 ], [ 74.27504, 18.51651 ], [ 74.27522, 18.53012 ], [ 74.27388, 18.54116 ], [ 74.28368, 18.54481 ], [ 74.28676, 18.54501 ], [ 74.28696, 18.54314 ], [ 74.28933, 18.54189 ], [ 74.28911, 18.53756 ], [ 74.2977, 18.53743 ], [ 74.3075, 18.53442 ], [ 74.30607, 18.52191 ], [ 74.30903, 18.52001 ], [ 74.30737, 18.50899 ], [ 74.30568, 18.50458 ], [ 74.29999, 18.50506 ], [ 74.28195, 18.5143 ], [ 74.27615, 18.51363 ] ] ] } },
{ "type": "Feature", "properties": { "block_name": "DAUND", "block_lgd": 4514, "area_km2": 6.51 }, "geometry": { "type": "Polygon", "coordinates": [ [ [ 74.34155, 18.48471 ], [ 74.32391, 18.4858 ], [ 74.32439, 18.48697 ], [ 74.32883, 18.49427 ], [ 74.33451, 18.50034 ], [ 74.33768, 18.50949 ], [ 74.34738, 18.5095 ], [ 74.34834, 18.51713 ], [ 74.35821, 18.51608 ], [ 74.3558, 18.50312 ], [ 74.34652, 18.5044 ], [ 74.35519, 18.5025 ], [ 74.35373, 18.5006 ], [ 74.35275, 18.50081 ], [ 74.35175, 18.49474 ], [ 74.34824, 18.49259 ], [ 74.34627, 18.48806 ], [ 74.34155, 18.48471 ] ] ] } },
{ "type": "Feature", "properties": { "block_name": "DAUND", "block_lgd": 4514, "area_km2": 3.43 }, "geometry": { "type": "Polygon", "coordinates": [ [ [ 74.31727, 18.51947 ], [ 74.31586, 18.53002 ], [ 74.31667, 18.53895 ], [ 74.32379, 18.53766 ], [ 74.32388, 18.54039 ], [ 74.32521, 18.5399 ], [ 74.32515, 18.53917 ], [ 74.333, 18.53904 ], [ 74.3329, 18.53837 ], [ 74.33672, 18.53783 ], [ 74.33479, 18.53248 ], [ 74.32859, 18.52633 ], [ 74.32382, 18.51735 ], [ 74.31727, 18.51947 ] ] ] } },
{ "type": "Feature", "properties": { "block_name": "DAUND", "block_lgd": 4514, "area_km2": 10.95 }, "geometry": { "type": "Polygon", "coordinates": [ [ [ 74.48571, 18.46248 ], [ 74.48764, 18.46846 ], [ 74.49849, 18.46448 ], [ 74.50209, 18.46393 ], [ 74.50435, 18.45696 ], [ 74.51055, 18.44591 ], [ 74.49783, 18.43394 ], [ 74.49786, 18.43065 ], [ 74.49531, 18.42008 ], [ 74.49615, 18.41787 ], [ 74.48832, 18.42023 ], [ 74.4821, 18.41887 ], [ 74.48046, 18.42124 ], [ 74.48086, 18.42248 ], [ 74.4827, 18.42327 ], [ 74.48245, 18.42601 ], [ 74.48009, 18.4266 ], [ 74.48118, 18.43098 ], [ 74.48286, 18.43291 ], [ 74.48563, 18.44 ], [ 74.48311, 18.44239 ], [ 74.48117, 18.44873 ], [ 74.47785, 18.45281 ], [ 74.4822, 18.45596 ], [ 74.48199, 18.46106 ], [ 74.48571, 18.46248 ] ] ] } },
{ "type": "Feature", "properties": { "block_name": "DAUND", "block_lgd": 4514, "area_km2": 6.48 }, "geometry": { "type": "Polygon", "coordinates": [ [ [ 74.56778, 18.43781 ], [ 74.57648, 18.45388 ], [ 74.59459, 18.44991 ], [ 74.59601, 18.43832 ], [ 74.59743, 18.434 ], [ 74.59603, 18.42984 ], [ 74.5922, 18.4288 ], [ 74.59134, 18.43056 ], [ 74.58978, 18.42879 ], [ 74.5846, 18.42787 ], [ 74.58431, 18.42598 ], [ 74.58287, 18.42587 ], [ 74.58258, 18.42779 ], [ 74.58173, 18.42804 ], [ 74.5827, 18.42988 ], [ 74.57058, 18.43073 ], [ 74.57106, 18.43689 ], [ 74.56778, 18.43781 ] ] ] } },
{ "type": "Feature", "properties": { "block_name": "DAUND", "block_lgd": 4514, "area_km2": 9.2 }, "geometry": { "type": "Polygon", "coordinates": [ [ [ 74.76973, 18.32941 ], [ 74.75963, 18.33012 ], [ 74.75403, 18.33763 ], [ 74.74552, 18.35226 ], [ 74.74618, 18.35729 ], [ 74.74835, 18.36142 ], [ 74.7599, 18.35999 ], [ 74.76185, 18.35855 ], [ 74.77156, 18.35652 ], [ 74.7709, 18.35378 ], [ 74.77298, 18.35283 ], [ 74.77257, 18.34953 ], [ 74.77331, 18.3495 ], [ 74.77254, 18.34713 ], [ 74.78108, 18.34656 ], [ 74.77864, 18.33772 ], [ 74.78292, 18.33718 ], [ 74.77936, 18.32782 ], [ 74.76973, 18.32941 ] ] ] } },
{ "type": "Feature", "properties": { "block_name": "SHIRUR", "block_lgd": 4523, "area_km2": 15.23 }, "geometry": { "type": "Polygon", "coordinates": [ [ [ 74.30645, 18.85519 ], [ 74.31379, 18.84845 ], [ 74.32006, 18.84426 ], [ 74.32313, 18.84038 ], [ 74.32304, 18.83909 ], [ 74.32184, 18.83691 ], [ 74.31889, 18.83702 ], [ 74.3187, 18.83599 ], [ 74.31164, 18.8323 ], [ 74.31092, 18.83101 ], [ 74.30641, 18.83255 ], [ 74.30543, 18.83182 ], [ 74.30449, 18.83325 ], [ 74.3033, 18.8322 ], [ 74.30584, 18.82995 ], [ 74.30694, 18.83024 ], [ 74.3066, 18.82595 ], [ 74.30796, 18.82505 ], [ 74.30709, 18.82234 ], [ 74.30568, 18.82121 ], [ 74.30643, 18.82142 ], [ 74.30653, 18.81928 ], [ 74.3035, 18.81474 ], [ 74.29813, 18.81379 ], [ 74.29665, 18.81229 ], [ 74.29467, 18.81212 ], [ 74.29202, 18.80893 ], [ 74.29151, 18.80654 ], [ 74.2879, 18.80565 ], [ 74.28478, 18.81059 ], [ 74.28228, 18.81206 ], [ 74.28141, 18.81685 ], [ 74.28009, 18.81988 ], [ 74.27869, 18.82062 ], [ 74.28132, 18.82448 ], [ 74.2796, 18.82691 ], [ 74.28046, 18.83033 ], [ 74.27904, 18.83122 ], [ 74.27865, 18.83436 ], [ 74.27671, 18.83482 ], [ 74.27703, 18.83674 ], [ 74.27614, 18.8389 ], [ 74.27827, 18.84253 ], [ 74.27612, 18.84282 ], [ 74.27532, 18.84428 ], [ 74.27943, 18.84838 ], [ 74.28041, 18.85302 ], [ 74.28309, 18.85751 ], [ 74.28423, 18.85763 ], [ 74.28983, 18.85131 ], [ 74.29956, 18.84426 ], [ 74.30247, 18.84512 ], [ 74.30313, 18.85197 ], [ 74.3045, 18.85413 ], [ 74.30645, 18.85519 ] ] ] } },
{ "type": "Feature", "properties": { "block_name": "SHIRUR", "block_lgd": 4523, "area_km2": 1.37 }, "geometry": { "type": "Polygon", "coordinates": [ [ [ 74.56731, 18.52775 ], [ 74.56584, 18.52472 ], [ 74.56119, 18.52191 ], [ 74.55865, 18.51786 ], [ 74.55349, 18.51541 ], [ 74.55165, 18.52869 ], [ 74.56113, 18.52765 ], [ 74.5613, 18.52838 ], [ 74.56419, 18.52793 ], [ 74.5645, 18.52866 ], [ 74.56731, 18.52775 ] ] ] } },
{ "type": "Feature", "properties": { "block_name": "SHIRUR", "block_lgd": 4523, "area_km2": 9.58 }, "geometry": { "type": "Polygon", "coordinates": [ [ [ 74.20897, 18.93609 ], [ 74.21174, 18.93878 ], [ 74.21524, 18.93655 ], [ 74.2165, 18.9397 ], [ 74.22307, 18.93828 ], [ 74.22281, 18.9325 ], [ 74.22818, 18.93121 ], [ 74.23262, 18.93218 ], [ 74.2337, 18.9289 ], [ 74.23102, 18.92797 ], [ 74.23205, 18.92533 ], [ 74.23033, 18.92422 ], [ 74.22686, 18.92653 ], [ 74.22532, 18.92354 ], [ 74.22415, 18.92363 ], [ 74.2239, 18.91885 ], [ 74.22153, 18.92016 ], [ 74.22007, 18.91677 ], [ 74.22332, 18.91607 ], [ 74.2231, 18.91089 ], [ 74.22436, 18.91018 ], [ 74.22333, 18.90676 ], [ 74.2222, 18.90622 ], [ 74.21489, 18.9079 ], [ 74.2038, 18.91564 ], [ 74.19487, 18.91289 ], [ 74.19127, 18.91493 ], [ 74.18596, 18.91459 ], [ 74.18177, 18.91754 ], [ 74.18616, 18.92061 ], [ 74.19259, 18.923 ], [ 74.1947, 18.9265 ], [ 74.19899, 18.93025 ], [ 74.20897, 18.93609 ] ] ] } },
{ "type": "Feature", "properties": { "block_name": "SHIRUR", "block_lgd": 4523, "area_km2": 32.35 }, "geometry": { "type": "Polygon", "coordinates": [ [ [ 74.08701, 18.85747 ], [ 74.09129, 18.85466 ], [ 74.0932, 18.85252 ], [ 74.09569, 18.85239 ], [ 74.09854, 18.84939 ], [ 74.09834, 18.84746 ], [ 74.1032, 18.84738 ], [ 74.10023, 18.84083 ], [ 74.09702, 18.83833 ], [ 74.08902, 18.83533 ], [ 74.08472, 18.83227 ], [ 74.07881, 18.81116 ], [ 74.06831, 18.81269 ], [ 74.06812, 18.80453 ], [ 74.06509, 18.80233 ], [ 74.06131, 18.80203 ], [ 74.05861, 18.79808 ], [ 74.06258, 18.79803 ], [ 74.06254, 18.79374 ], [ 74.05312, 18.79479 ], [ 74.0527, 18.79074 ], [ 74.04802, 18.79052 ], [ 74.04873, 18.79215 ], [ 74.04598, 18.78914 ], [ 74.04702, 18.79396 ], [ 74.04249, 18.79794 ], [ 74.04193, 18.79944 ], [ 74.03719, 18.80025 ], [ 74.03796, 18.80768 ], [ 74.03891, 18.80975 ], [ 74.03682, 18.81141 ], [ 74.03182, 18.8123 ], [ 74.03192, 18.8182 ], [ 74.034, 18.82387 ], [ 74.04051, 18.82346 ], [ 74.0441, 18.82619 ], [ 74.04458, 18.82563 ], [ 74.04302, 18.82385 ], [ 74.04205, 18.8199 ], [ 74.04354, 18.81965 ], [ 74.04546, 18.82373 ], [ 74.04941, 18.82308 ], [ 74.0522, 18.8275 ], [ 74.05528, 18.83046 ], [ 74.05573, 18.82539 ], [ 74.05888, 18.82736 ], [ 74.06043, 18.82655 ], [ 74.06333, 18.83001 ], [ 74.06412, 18.8293 ], [ 74.06576, 18.83018 ], [ 74.07287, 18.82899 ], [ 74.07314, 18.83036 ], [ 74.07672, 18.83065 ], [ 74.07568, 18.83571 ], [ 74.07493, 18.83608 ], [ 74.0753, 18.84091 ], [ 74.07069, 18.84012 ], [ 74.07013, 18.84449 ], [ 74.07098, 18.8519 ], [ 74.06749, 18.85268 ], [ 74.06739, 18.85501 ], [ 74.06476, 18.85554 ], [ 74.06625, 18.85806 ], [ 74.063, 18.85834 ], [ 74.06337, 18.85178 ], [ 74.0576, 18.84391 ], [ 74.05753, 18.84585 ], [ 74.05321, 18.84579 ], [ 74.05079, 18.84711 ], [ 74.05021, 18.84224 ], [ 74.04299, 18.84287 ], [ 74.04319, 18.84624 ], [ 74.04141, 18.84924 ], [ 74.04244, 18.8516 ], [ 74.04143, 18.85418 ], [ 74.04487, 18.85463 ], [ 74.04367, 18.85632 ], [ 74.04593, 18.85884 ], [ 74.04527, 18.86174 ], [ 74.04438, 18.86232 ], [ 74.04236, 18.86229 ], [ 74.04091, 18.86365 ], [ 74.03832, 18.86282 ], [ 74.03486, 18.85715 ], [ 74.03739, 18.85644 ], [ 74.03832, 18.85418 ], [ 74.03604, 18.85115 ], [ 74.03403, 18.85145 ], [ 74.03419, 18.84899 ], [ 74.0322, 18.84952 ], [ 74.03047, 18.84869 ], [ 74.02972, 18.85181 ], [ 74.02791, 18.84919 ], [ 74.02753, 18.85149 ], [ 74.02307, 18.85284 ], [ 74.02344, 18.85545 ], [ 74.02539, 18.85422 ], [ 74.03165, 18.85461 ], [ 74.03639, 18.86337 ], [ 74.03908, 18.86553 ], [ 74.04006, 18.86855 ], [ 74.04223, 18.87009 ], [ 74.04301, 18.87327 ], [ 74.04238, 18.87624 ], [ 74.04405, 18.88038 ], [ 74.04447, 18.88443 ], [ 74.05673, 18.8786 ], [ 74.06031, 18.87563 ], [ 74.05945, 18.87429 ], [ 74.0612, 18.8713 ], [ 74.06845, 18.86791 ], [ 74.06913, 18.86835 ], [ 74.07129, 18.86672 ], [ 74.07522, 18.86646 ], [ 74.07683, 18.86538 ], [ 74.07902, 18.86016 ], [ 74.08701, 18.85747 ] ] ] } },
{ "type": "Feature", "properties": { "block_name": "SHIRUR", "block_lgd": 4523, "area_km2": 10.81 }, "geometry": { "type": "Polygon", "coordinates": [ [ [ 74.32959, 18.77929 ], [ 74.32472, 18.78213 ], [ 74.32147, 18.78905 ], [ 74.31986, 18.78983 ], [ 74.31985, 18.79313 ], [ 74.31748, 18.79782 ], [ 74.31603, 18.79883 ], [ 74.3296, 18.81746 ], [ 74.33162, 18.8177 ], [ 74.334, 18.81677 ], [ 74.33809, 18.82087 ], [ 74.33789, 18.81851 ], [ 74.34141, 18.81836 ], [ 74.34416, 18.81963 ], [ 74.34739, 18.81479 ], [ 74.34563, 18.80293 ], [ 74.34651, 18.79944 ], [ 74.34582, 18.79386 ], [ 74.34924, 18.79503 ], [ 74.34964, 18.78818 ], [ 74.34831, 18.78549 ], [ 74.34469, 18.78316 ], [ 74.32959, 18.77929 ] ] ] } },
{ "type": "Feature", "properties": { "block_name": "KHED", "block_lgd": 4518, "area_km2": 7.15 }, "geometry": { "type": "Polygon", "coordinates": [ [ [ 73.90115, 18.66557 ], [ 73.89572, 18.67713 ], [ 73.88926, 18.67796 ], [ 73.89128, 18.67967 ], [ 73.89122, 18.68158 ], [ 73.89247, 18.68304 ], [ 73.8934, 18.69147 ], [ 73.89505, 18.69621 ], [ 73.89535, 18.70184 ], [ 73.89677, 18.70663 ], [ 73.90264, 18.71515 ], [ 73.9073, 18.71265 ], [ 73.90708, 18.71014 ], [ 73.90813, 18.70819 ], [ 73.91011, 18.70753 ], [ 73.90986, 18.70471 ], [ 73.91195, 18.69619 ], [ 73.91166, 18.6905 ], [ 73.91058, 18.68908 ], [ 73.90796, 18.67944 ], [ 73.90115, 18.66557 ] ] ] } },
{ "type": "Feature", "properties": { "block_name": "KHED", "block_lgd": 4518, "area_km2": 9.72 }, "geometry": { "type": "Polygon", "coordinates": [ [ [ 73.91225, 18.90985 ], [ 73.91343, 18.90864 ], [ 73.91382, 18.90562 ], [ 73.91575, 18.90533 ], [ 73.91501, 18.90297 ], [ 73.91227, 18.90078 ], [ 73.91013, 18.90083 ], [ 73.90996, 18.90262 ], [ 73.90711, 18.90123 ], [ 73.90694, 18.89901 ], [ 73.90516, 18.89689 ], [ 73.90723, 18.89393 ], [ 73.90073, 18.88089 ], [ 73.89573, 18.86839 ], [ 73.89834, 18.86842 ], [ 73.90313, 18.866 ], [ 73.90232, 18.86242 ], [ 73.90537, 18.86412 ], [ 73.91003, 18.86409 ], [ 73.90955, 18.86242 ], [ 73.91305, 18.86349 ], [ 73.91054, 18.85702 ], [ 73.90933, 18.85549 ], [ 73.90693, 18.85482 ], [ 73.89964, 18.85453 ], [ 73.90087, 18.8599 ], [ 73.89763, 18.86064 ], [ 73.89717, 18.85876 ], [ 73.89505, 18.85844 ], [ 73.89203, 18.85522 ], [ 73.89128, 18.85173 ], [ 73.89366, 18.85106 ], [ 73.89323, 18.84926 ], [ 73.89077, 18.84974 ], [ 73.89004, 18.84748 ], [ 73.88874, 18.84823 ], [ 73.88795, 18.84729 ], [ 73.88577, 18.84936 ], [ 73.87879, 18.85103 ], [ 73.8746, 18.85306 ], [ 73.871, 18.85772 ], [ 73.87108, 18.85966 ], [ 73.8734, 18.8582 ], [ 73.87611, 18.86121 ], [ 73.87686, 18.86055 ], [ 73.87911, 18.86522 ], [ 73.88312, 18.86437 ], [ 73.88377, 18.86825 ], [ 73.88596, 18.868 ], [ 73.88889, 18.87636 ], [ 73.8879, 18.87763 ], [ 73.88955, 18.88361 ], [ 73.89413, 18.88509 ], [ 73.89757, 18.88891 ], [ 73.89739, 18.89125 ], [ 73.8984, 18.89154 ], [ 73.8987, 18.89485 ], [ 73.90133, 18.89539 ], [ 73.90146, 18.89762 ], [ 73.89953, 18.90051 ], [ 73.89533, 18.90108 ], [ 73.89853, 18.90219 ], [ 73.89791, 18.90354 ], [ 73.90072, 18.9059 ], [ 73.89961, 18.90782 ], [ 73.90295, 18.90797 ], [ 73.90143, 18.90555 ], [ 73.90331, 18.90058 ], [ 73.90601, 18.90513 ], [ 73.90718, 18.90383 ], [ 73.91062, 18.90524 ], [ 73.91225, 18.90985 ] ] ] } },
{ "type": "Feature", "properties": { "block_name": "KHED", "block_lgd": 4518, "area_km2": 18.06 }, "geometry": { "type": "Polygon", "coordinates": [ [ [ 73.88925, 18.77782 ], [ 73.88716, 18.76793 ], [ 73.89147, 18.76675 ], [ 73.89627, 18.76787 ], [ 73.89893, 18.7698 ], [ 73.90103, 18.7676 ], [ 73.90315, 18.76225 ], [ 73.90738, 18.76155 ], [ 73.90602, 18.74836 ], [ 73.90402, 18.74813 ], [ 73.89707, 18.75118 ], [ 73.89357, 18.74933 ], [ 73.8911, 18.74672 ], [ 73.88961, 18.74652 ], [ 73.88879, 18.74332 ], [ 73.88492, 18.74564 ], [ 73.88653, 18.74902 ], [ 73.88915, 18.74855 ], [ 73.88892, 18.7496 ], [ 73.89044, 18.74961 ], [ 73.88896, 18.75465 ], [ 73.8863, 18.75515 ], [ 73.88359, 18.75431 ], [ 73.87498, 18.75676 ], [ 73.87474, 18.75183 ], [ 73.87046, 18.75178 ], [ 73.87043, 18.74865 ], [ 73.86896, 18.74854 ], [ 73.86902, 18.74592 ], [ 73.86174, 18.74373 ], [ 73.8603, 18.73662 ], [ 73.85618, 18.73074 ], [ 73.85932, 18.74181 ], [ 73.8606, 18.75412 ], [ 73.8592, 18.75505 ], [ 73.84889, 18.75558 ], [ 73.84766, 18.75608 ], [ 73.8483, 18.75896 ], [ 73.84437, 18.75985 ], [ 73.84545, 18.76599 ], [ 73.84429, 18.76619 ], [ 73.84422, 18.77199 ], [ 73.84707, 18.77051 ], [ 73.84927, 18.78308 ], [ 73.84774, 18.78364 ], [ 73.84788, 18.78468 ], [ 73.85014, 18.78458 ], [ 73.8506, 18.7859 ], [ 73.85366, 18.78618 ], [ 73.85527, 18.78613 ], [ 73.85523, 18.78498 ], [ 73.8622, 18.78478 ], [ 73.86123, 18.77755 ], [ 73.86672, 18.77599 ], [ 73.86841, 18.77647 ], [ 73.8688, 18.77773 ], [ 73.87291, 18.77718 ], [ 73.87484, 18.77994 ], [ 73.87658, 18.78018 ], [ 73.87723, 18.78172 ], [ 73.87874, 18.78229 ], [ 73.88505, 18.78025 ], [ 73.88925, 18.77782 ] ] ] } },
{ "type": "Feature", "properties": { "block_name": "KHED", "block_lgd": 4518, "area_km2": 18.15 }, "geometry": { "type": "Polygon", "coordinates": [ [ [ 73.7144, 18.91537 ], [ 73.71757, 18.91575 ], [ 73.72375, 18.92227 ], [ 73.7308, 18.92334 ], [ 73.73205, 18.92469 ], [ 73.74853, 18.92408 ], [ 73.75143, 18.92508 ], [ 73.75548, 18.92204 ], [ 73.74691, 18.92196 ], [ 73.74583, 18.92034 ], [ 73.73865, 18.91847 ], [ 73.73256, 18.91067 ], [ 73.72841, 18.91041 ], [ 73.72649, 18.90393 ], [ 73.72892, 18.89858 ], [ 73.74382, 18.89231 ], [ 73.74926, 18.88851 ], [ 73.75667, 18.88688 ], [ 73.7567, 18.88358 ], [ 73.76086, 18.87828 ], [ 73.76534, 18.87775 ], [ 73.76894, 18.87563 ], [ 73.77221, 18.87749 ], [ 73.77501, 18.87771 ], [ 73.77516, 18.87913 ], [ 73.77718, 18.87886 ], [ 73.77919, 18.87695 ], [ 73.78053, 18.87709 ], [ 73.77844, 18.86859 ], [ 73.77551, 18.8633 ], [ 73.77159, 18.85976 ], [ 73.77007, 18.85568 ], [ 73.76789, 18.85665 ], [ 73.76459, 18.85623 ], [ 73.76453, 18.85779 ], [ 73.76377, 18.85724 ], [ 73.74709, 18.8646 ], [ 73.74886, 18.86834 ], [ 73.75048, 18.87928 ], [ 73.74942, 18.88083 ], [ 73.74565, 18.88274 ], [ 73.74012, 18.88307 ], [ 73.73709, 18.88882 ], [ 73.73199, 18.8933 ], [ 73.72325, 18.89869 ], [ 73.71871, 18.89974 ], [ 73.71784, 18.89558 ], [ 73.71897, 18.89147 ], [ 73.71722, 18.87663 ], [ 73.7195, 18.87621 ], [ 73.71893, 18.87117 ], [ 73.71, 18.87195 ], [ 73.70106, 18.8708 ], [ 73.70348, 18.87384 ], [ 73.70522, 18.87455 ], [ 73.7075, 18.87964 ], [ 73.7085, 18.88631 ], [ 73.70802, 18.89003 ], [ 73.70596, 18.89413 ], [ 73.70806, 18.89701 ], [ 73.70855, 18.89961 ], [ 73.71412, 18.90549 ], [ 73.71233, 18.91061 ], [ 73.7144, 18.91537 ] ] ] } },
{ "type": "Feature", "properties": { "block_name": "KHED", "block_lgd": 4518, "area_km2": 18.99 }, "geometry": { "type": "Polygon", "coordinates": [ [ [ 73.77393, 19.00354 ], [ 73.77213, 19.01503 ], [ 73.77273, 19.01455 ], [ 73.77949, 19.01576 ], [ 73.78128, 19.01477 ], [ 73.78274, 19.00996 ], [ 73.7855, 19.0132 ], [ 73.78993, 19.00931 ], [ 73.79434, 19.00907 ], [ 73.79378, 19.00105 ], [ 73.79195, 18.99935 ], [ 73.79193, 18.99777 ], [ 73.79368, 18.99695 ], [ 73.80246, 19.00148 ], [ 73.80262, 19.00019 ], [ 73.80501, 19.00113 ], [ 73.80626, 19.00074 ], [ 73.80817, 18.99875 ], [ 73.80782, 18.99681 ], [ 73.8045, 18.99345 ], [ 73.80611, 18.99157 ], [ 73.80741, 18.99115 ], [ 73.8138, 18.99343 ], [ 73.81707, 18.99319 ], [ 73.82099, 18.99663 ], [ 73.82232, 18.99383 ], [ 73.81032, 18.98003 ], [ 73.80595, 18.97781 ], [ 73.80033, 18.9765 ], [ 73.79543, 18.97091 ], [ 73.79244, 18.96949 ], [ 73.78964, 18.96378 ], [ 73.78814, 18.95569 ], [ 73.78578, 18.95565 ], [ 73.78059, 18.9578 ], [ 73.77689, 18.96226 ], [ 73.7759, 18.9637 ], [ 73.7759, 18.96862 ], [ 73.77358, 18.97345 ], [ 73.77148, 18.97364 ], [ 73.76871, 18.97245 ], [ 73.76455, 18.96842 ], [ 73.76242, 18.96796 ], [ 73.76129, 18.96861 ], [ 73.76189, 18.97668 ], [ 73.76597, 18.98091 ], [ 73.76734, 18.98429 ], [ 73.77124, 18.98731 ], [ 73.77433, 18.99548 ], [ 73.77287, 18.9987 ], [ 73.77393, 19.00354 ] ] ] } },
{ "type": "Feature", "properties": { "block_name": "KHED", "block_lgd": 4518, "area_km2": 1.46 }, "geometry": { "type": "Polygon", "coordinates": [ [ [ 73.81746, 18.942 ], [ 73.81418, 18.93368 ], [ 73.80786, 18.93629 ], [ 73.80589, 18.94173 ], [ 73.80315, 18.94453 ], [ 73.80522, 18.94702 ], [ 73.80777, 18.94659 ], [ 73.80816, 18.94902 ], [ 73.81002, 18.94967 ], [ 73.81175, 18.94856 ], [ 73.81545, 18.94344 ], [ 73.81746, 18.942 ] ] ] } },
{ "type": "Feature", "properties": { "block_name": "AMBEGAON", "block_lgd": 4511, "area_km2": 9.68 }, "geometry": { "type": "Polygon", "coordinates": [ [ [ 73.97928, 18.9654 ], [ 73.99486, 18.96444 ], [ 73.994, 18.96735 ], [ 73.99749, 18.96582 ], [ 74.00103, 18.96751 ], [ 74.00277, 18.96777 ], [ 74.00312, 18.96705 ], [ 74.00118, 18.96524 ], [ 73.99988, 18.96626 ], [ 73.99904, 18.96326 ], [ 73.99732, 18.96307 ], [ 73.99568, 18.96032 ], [ 73.99617, 18.95885 ], [ 73.99802, 18.95895 ], [ 73.99795, 18.95787 ], [ 74.00023, 18.95807 ], [ 74.00021, 18.95683 ], [ 73.99641, 18.95102 ], [ 74.00057, 18.94916 ], [ 74.00029, 18.94662 ], [ 73.99808, 18.94672 ], [ 73.99805, 18.94825 ], [ 73.99578, 18.94816 ], [ 73.99587, 18.94402 ], [ 73.99815, 18.94102 ], [ 73.99685, 18.93812 ], [ 73.9945, 18.93809 ], [ 73.99356, 18.92944 ], [ 73.98893, 18.92999 ], [ 73.98679, 18.92945 ], [ 73.9831, 18.92621 ], [ 73.97903, 18.92646 ], [ 73.97958, 18.92987 ], [ 73.97794, 18.93146 ], [ 73.9786, 18.93364 ], [ 73.97808, 18.93593 ], [ 73.97602, 18.93549 ], [ 73.97479, 18.9376 ], [ 73.967, 18.94001 ], [ 73.96738, 18.94353 ], [ 73.97368, 18.94982 ], [ 73.97747, 18.96248 ], [ 73.97928, 18.9654 ] ] ] } },
{ "type": "Feature", "properties": { "block_name": "JUNNAR", "block_lgd": 4517, "area_km2": 10.41 }, "geometry": { "type": "Polygon", "coordinates": [ [ [ 74.12628, 19.22235 ], [ 74.13028, 19.22394 ], [ 74.13552, 19.22466 ], [ 74.14162, 19.2244 ], [ 74.1513, 19.22573 ], [ 74.15192, 19.22169 ], [ 74.1535, 19.2217 ], [ 74.1552, 19.22035 ], [ 74.15324, 19.21971 ], [ 74.15403, 19.21482 ], [ 74.1566, 19.21233 ], [ 74.15739, 19.20237 ], [ 74.15688, 19.19878 ], [ 74.14302, 19.20021 ], [ 74.13484, 19.19807 ], [ 74.13554, 19.19745 ], [ 74.13517, 19.19591 ], [ 74.13147, 19.19663 ], [ 74.13101, 19.19522 ], [ 74.12575, 19.19074 ], [ 74.12272, 19.19185 ], [ 74.12452, 19.1951 ], [ 74.11916, 19.19642 ], [ 74.11938, 19.19913 ], [ 74.12203, 19.21043 ], [ 74.12478, 19.21505 ], [ 74.12462, 19.2197 ], [ 74.12628, 19.22235 ] ] ] } },
{ "type": "Feature", "properties": { "block_name": "JUNNAR", "block_lgd": 4517, "area_km2": 25.96 }, "geometry": { "type": "Polygon", "coordinates": [ [ [ 73.8627, 19.31117 ], [ 73.86349, 19.32565 ], [ 73.8664, 19.32731 ], [ 73.86974, 19.33739 ], [ 73.874, 19.33739 ], [ 73.87912, 19.33581 ], [ 73.88496, 19.33273 ], [ 73.887, 19.3306 ], [ 73.89052, 19.33 ], [ 73.89369, 19.32805 ], [ 73.90226, 19.32646 ], [ 73.90365, 19.32706 ], [ 73.91392, 19.32602 ], [ 73.91477, 19.32766 ], [ 73.91683, 19.32651 ], [ 73.91777, 19.32716 ], [ 73.91929, 19.31502 ], [ 73.91631, 19.30468 ], [ 73.91289, 19.30154 ], [ 73.91207, 19.29783 ], [ 73.90969, 19.29475 ], [ 73.91032, 19.29313 ], [ 73.90976, 19.29197 ], [ 73.90393, 19.29347 ], [ 73.90352, 19.29098 ], [ 73.89955, 19.29195 ], [ 73.89562, 19.28242 ], [ 73.89151, 19.2831 ], [ 73.88609, 19.28175 ], [ 73.88168, 19.28308 ], [ 73.8786, 19.28244 ], [ 73.86716, 19.28724 ], [ 73.86446, 19.29903 ], [ 73.86824, 19.30998 ], [ 73.86548, 19.31153 ], [ 73.8627, 19.31117 ] ] ] } },
{ "type": "Feature", "properties": { "block_name": "JUNNAR", "block_lgd": 4517, "area_km2": 3.06 }, "geometry": { "type": "Polygon", "coordinates": [ [ [ 73.87504, 19.21441 ], [ 73.88104, 19.21632 ], [ 73.8852, 19.21536 ], [ 73.88301, 19.21034 ], [ 73.88454, 19.21037 ], [ 73.88591, 19.20878 ], [ 73.89535, 19.21064 ], [ 73.89785, 19.2077 ], [ 73.90125, 19.20761 ], [ 73.89855, 19.20122 ], [ 73.89716, 19.20137 ], [ 73.89688, 19.19843 ], [ 73.89364, 19.20053 ], [ 73.89024, 19.20121 ], [ 73.88946, 19.20212 ], [ 73.89008, 19.20499 ], [ 73.88639, 19.20476 ], [ 73.8854, 19.20347 ], [ 73.87953, 19.20495 ], [ 73.872, 19.20406 ], [ 73.87314, 19.20473 ], [ 73.8708, 19.20536 ], [ 73.87138, 19.20689 ], [ 73.86971, 19.20733 ], [ 73.86964, 19.20857 ], [ 73.87086, 19.20857 ], [ 73.87232, 19.21151 ], [ 73.8744, 19.21118 ], [ 73.87541, 19.214 ], [ 73.87419, 19.21504 ], [ 73.871, 19.21526 ], [ 73.86917, 19.21734 ], [ 73.86612, 19.21674 ], [ 73.86422, 19.21829 ], [ 73.87157, 19.21842 ], [ 73.87302, 19.21788 ], [ 73.87504, 19.21441 ] ] ] } },
{ "type": "Feature", "properties": { "block_name": "JUNNAR", "block_lgd": 4517, "area_km2": 1.23 }, "geometry": { "type": "Polygon", "coordinates": [ [ [ 73.84371, 19.16021 ], [ 73.84076, 19.16692 ], [ 73.84455, 19.16903 ], [ 73.84482, 19.17046 ], [ 73.84921, 19.16925 ], [ 73.85148, 19.1657 ], [ 73.85449, 19.16613 ], [ 73.85403, 19.16462 ], [ 73.8547, 19.16437 ], [ 73.85173, 19.15762 ], [ 73.8534, 19.15626 ], [ 73.85171, 19.15617 ], [ 73.84763, 19.16014 ], [ 73.84371, 19.16021 ] ] ] } },
{ "type": "Feature", "properties": { "block_name": "INDAPUR", "block_lgd": 4516, "area_km2": 10.98 }, "geometry": { "type": "Polygon", "coordinates": [ [ [ 75.0874, 18.21984 ], [ 75.10246, 18.22127 ], [ 75.10611, 18.21999 ], [ 75.10813, 18.21711 ], [ 75.11193, 18.20503 ], [ 75.11213, 18.20168 ], [ 75.11034, 18.18705 ], [ 75.10844, 18.18141 ], [ 75.08591, 18.18458 ], [ 75.08447, 18.18898 ], [ 75.08266, 18.18989 ], [ 75.08275, 18.19294 ], [ 75.08547, 18.19446 ], [ 75.08508, 18.20118 ], [ 75.0866, 18.21779 ], [ 75.0874, 18.21984 ] ] ] } },
{ "type": "Feature", "properties": { "block_name": "INDAPUR", "block_lgd": 4516, "area_km2": 0.67 }, "geometry": { "type": "Polygon", "coordinates": [ [ [ 74.69245, 18.08173 ], [ 74.69541, 18.08246 ], [ 74.69694, 18.08164 ], [ 74.69137, 18.06949 ], [ 74.68706, 18.07222 ], [ 74.69245, 18.08173 ] ] ] } },
{ "type": "Feature", "properties": { "block_name": "INDAPUR", "block_lgd": 4516, "area_km2": 41.85 }, "geometry": { "type": "Polygon", "coordinates": [ [ [ 74.96404, 18.13425 ], [ 74.96447, 18.13722 ], [ 74.96903, 18.13971 ], [ 74.97011, 18.1441 ], [ 74.96799, 18.14517 ], [ 74.96794, 18.146 ], [ 74.96901, 18.14689 ], [ 74.97201, 18.14685 ], [ 74.98672, 18.13251 ], [ 74.99105, 18.13213 ], [ 74.99296, 18.13277 ], [ 74.99408, 18.14206 ], [ 74.99124, 18.1489 ], [ 74.99183, 18.15339 ], [ 74.99409, 18.14979 ], [ 74.99687, 18.14955 ], [ 74.99684, 18.14848 ], [ 75.00032, 18.14939 ], [ 75.0078, 18.14932 ], [ 75.00933, 18.14163 ], [ 75.01629, 18.14396 ], [ 75.01768, 18.13914 ], [ 75.01997, 18.14003 ], [ 75.02807, 18.13723 ], [ 75.02815, 18.13343 ], [ 75.03124, 18.13578 ], [ 75.04127, 18.13306 ], [ 75.04036, 18.13121 ], [ 75.04315, 18.13048 ], [ 75.0426, 18.12865 ], [ 75.04687, 18.12626 ], [ 75.04854, 18.12246 ], [ 75.0475, 18.12195 ], [ 75.04805, 18.11881 ], [ 75.05159, 18.11899 ], [ 75.05159, 18.11421 ], [ 75.04728, 18.11244 ], [ 75.04755, 18.10451 ], [ 75.05268, 18.1042 ], [ 75.0522, 18.10204 ], [ 75.05766, 18.10067 ], [ 75.05814, 18.0979 ], [ 75.05245, 18.09684 ], [ 75.04392, 18.09339 ], [ 75.04054, 18.09732 ], [ 75.03892, 18.09398 ], [ 75.03298, 18.08957 ], [ 75.03277, 18.08784 ], [ 75.0359, 18.07716 ], [ 75.03512, 18.06484 ], [ 75.03009, 18.06281 ], [ 75.02706, 18.0594 ], [ 75.01881, 18.0618 ], [ 75.01562, 18.05985 ], [ 75.01391, 18.05991 ], [ 75.01301, 18.0649 ], [ 75.00911, 18.06864 ], [ 75.00582, 18.07022 ], [ 75.00076, 18.07721 ], [ 74.99742, 18.07935 ], [ 74.99371, 18.08894 ], [ 74.99104, 18.09318 ], [ 74.99157, 18.09523 ], [ 74.99538, 18.09427 ], [ 74.99703, 18.0967 ], [ 74.99601, 18.102 ], [ 74.99779, 18.11007 ], [ 75.02022, 18.10973 ], [ 75.02009, 18.1124 ], [ 75.01882, 18.11403 ], [ 75.01049, 18.12001 ], [ 74.9948, 18.12642 ], [ 74.96404, 18.13425 ] ] ] } },
{ "type": "Feature", "properties": { "block_name": "INDAPUR", "block_lgd": 4516, "area_km2": 10.47 }, "geometry": { "type": "Polygon", "coordinates": [ [ [ 74.76076, 18.08781 ], [ 74.74139, 18.08727 ], [ 74.74294, 18.09484 ], [ 74.74099, 18.09513 ], [ 74.74187, 18.09741 ], [ 74.73873, 18.09878 ], [ 74.73843, 18.10116 ], [ 74.7452, 18.1004 ], [ 74.75955, 18.1107 ], [ 74.75999, 18.11328 ], [ 74.76711, 18.11982 ], [ 74.77184, 18.11717 ], [ 74.77248, 18.11767 ], [ 74.77627, 18.11284 ], [ 74.77669, 18.0778 ], [ 74.76891, 18.07714 ], [ 74.7656, 18.08344 ], [ 74.76788, 18.08717 ], [ 74.76364, 18.08797 ], [ 74.7632, 18.08914 ], [ 74.7614, 18.08892 ], [ 74.76076, 18.08781 ] ] ] } },
{ "type": "Feature", "properties": { "block_name": "INDAPUR", "block_lgd": 4516, "area_km2": 6.37 }, "geometry": { "type": "Polygon", "coordinates": [ [ [ 74.74961, 18.30157 ], [ 74.74788, 18.30339 ], [ 74.75058, 18.31124 ], [ 74.7582, 18.30716 ], [ 74.76426, 18.30181 ], [ 74.766, 18.30169 ], [ 74.76568, 18.30035 ], [ 74.76707, 18.29962 ], [ 74.76893, 18.30277 ], [ 74.7736, 18.30559 ], [ 74.77652, 18.31387 ], [ 74.77548, 18.31468 ], [ 74.77597, 18.31614 ], [ 74.78392, 18.31485 ], [ 74.78322, 18.29924 ], [ 74.77856, 18.2903 ], [ 74.77583, 18.29166 ], [ 74.77106, 18.29194 ], [ 74.76754, 18.28981 ], [ 74.76147, 18.28901 ], [ 74.75188, 18.29499 ], [ 74.74987, 18.29839 ], [ 74.74961, 18.30157 ] ] ] } }
]
}
